{ "type": "FeatureCollection", "features": [
{"type":"Feature","geometry":{"type":"Point","coordinates":[-122.39411196,37.79142819]},"properties":{":id":"row-sz67_7j82-nitq",":version":"rv-bf66.kpxm.b6gq",":created_at":"2026-05-01T11:02:43.383Z",":updated_at":"2026-05-01T11:02:43.383Z","name":"135 Main St","popos_address":"135 Main St","hours":"Unknown. Security would not disclose hours.","type":"Indoor Park","landscaping":"Waterfall on glass, some white noise effect.","seating_no":"Ample indoor seating: four tables with movable chairs, seven lounge sofas","food_service":"No","art":"Yes","restrooms":"No","accessibility":"Indirect","location":"Located in main lobby waiting area, at building's main entrance.","year":"1982","source":null,"food":null,"seating":"Y","description":"Interior lobby with seating open business hours only.","seating_and_tables":null,"hours_type":"Open Business Hours","subject_to_downtown_pln":"No","signage":"None","amenities":null,"block_num":"3717","lot_num":"012","parcel_num":"3717012","restroom":null,"indoor":true,"special_amenities":null,"map_id":null,"latitude":"37.79142819","longitude":"-122.39411196"}},
{"type":"Feature","geometry":{"type":"Point","coordinates":[-122.400283,37.789]},"properties":{":id":"row-ihwz-iv7i-3db8",":version":"rv-xt4u.m4uw_a66h",":created_at":"2026-05-01T11:02:43.383Z",":updated_at":"2026-05-01T11:02:43.383Z","name":"55 Second St - C","popos_address":"55 Second St","hours":"8AM - 6PM, M-F","type":"Atrium","landscaping":"A few planters, interesting paving, Art on walls.","seating_no":"4 benches (8 seats) along walls of gallery space.","food_service":"No","art":"Yes","restrooms":"Yes, through main lobby at reception desk (ID required)","accessibility":"13080","location":"Entrance from Stevenson Street","year":"2002","source":null,"food":null,"seating":"Y","description":null,"seating_and_tables":null,"hours_type":"Open Business Hours","subject_to_downtown_pln":"Yes","signage":"Yes","amenities":null,"block_num":"3708","lot_num":"096","parcel_num":"3708096","restroom":true,"indoor":true,"special_amenities":null,"map_id":null,"latitude":"37.789","longitude":"-122.400283"}},
{"type":"Feature","geometry":{"type":"Point","coordinates":[-122.39656,37.79052]},"properties":{":id":"row-tqqa_97z2_wtiw",":version":"rv-g6vr_nrdz.gvea",":created_at":"2026-05-01T11:02:43.383Z",":updated_at":"2026-05-01T11:02:43.383Z","name":"Millenium Tower Plaza","popos_address":"301 Mission St","hours":"8AM - 6PM, M-F","type":"Atrium, Plaza","landscaping":"4 trees with lights, 10 medium plants","seating_no":"41 movable chairs and 24 linear seats","food_service":"Yes","art":"Yes","restrooms":"Yes. No restriction or lock.","accessibility":"Indirect for Atrium. Unknown for Plaza","location":"Ground level.","year":"2005","source":null,"food":"Y","seating":"Y","description":"This atrium features extensive artwork and is served by a bar/restaurant on the premises. It has various types of seating with tables, and high windows overhead.","seating_and_tables":null,"hours_type":"Open Business Hours","subject_to_downtown_pln":"Yes","signage":"yes.  Small, non-compliant plaque outside door","amenities":null,"block_num":"3719","lot_num":"020","parcel_num":"3719020","restroom":true,"indoor":true,"special_amenities":null,"map_id":null,"latitude":"37.79052","longitude":"-122.39656"}},
{"type":"Feature","geometry":{"type":"Point","coordinates":[-122.39851021,37.79111153]},"properties":{":id":"row-pbrm_r9p4_xxe5",":version":"rv-fcfx.edj9.xdx9",":created_at":"2026-05-01T11:02:43.383Z",":updated_at":"2026-05-01T11:02:43.383Z","name":"425 Market St","popos_address":"425 Market St","hours":"Open at all times","type":"Urban Garden","landscaping":"15 trees, 12 large planters with flowers","seating_no":"8 backed benches at 7'8\"; 4 6' benches","food_service":"Yes","art":"No","restrooms":"No","accessibility":"Direct","location":null,"year":"1973","source":null,"food":"Y","seating":"Y","description":"An open plaza between buildings with benches, trees and some landscape materials.","seating_and_tables":null,"hours_type":"Open At All Times","subject_to_downtown_pln":"No","signage":"None","amenities":null,"block_num":"3709","lot_num":"014","parcel_num":"3709014","restroom":null,"indoor":null,"special_amenities":null,"map_id":null,"latitude":"37.79111153","longitude":"-122.39851021"}},
{"type":"Feature","geometry":{"type":"Point","coordinates":[-122.41971,37.77613]},"properties":{":id":"row-8xkv_auec~455c",":version":"rv-8yrt~p8zp~m29f",":created_at":"2026-05-01T11:02:43.383Z",":updated_at":"2026-05-01T11:02:43.383Z","name":"77 Van Ness Ave","popos_address":"77 Van Ness Ave","hours":"8AM - 6PM, M-F","type":"Indoor Park","landscaping":"None","seating_no":"3 tables with 9 movable chairs","food_service":"No","art":"Yes","restrooms":"Yes","accessibility":"Direct","location":"Inside the lobby","year":"2002","source":null,"food":null,"seating":"Y","description":"This space is in the front lobby of 77 Van Ness. It has tables and chairs and features a sculpture.","seating_and_tables":"Y","hours_type":"Open Business Hours","subject_to_downtown_pln":"Yes","signage":"One sign on street, facing 90 degrees away from street. Removed in evenings in early mornings","amenities":null,"block_num":"0834","lot_num":"032","parcel_num":"0834032","restroom":true,"indoor":true,"special_amenities":null,"map_id":null,"latitude":"37.77613","longitude":"-122.41971"}},
{"type":"Feature","geometry":{"type":"Point","coordinates":[-122.40046,37.79306]},"properties":{":id":"row-9rra.ctqh-r7kb",":version":"rv-4edn~fu6u~mi7w",":created_at":"2026-05-01T11:02:43.383Z",":updated_at":"2026-05-01T11:02:43.383Z","name":"345 California St - A","popos_address":"345 California St","hours":"Open at all times","type":"Plaza","landscaping":"Planters with a few trees","seating_no":"14 chairs, 5 tables, 50' linear seating","food_service":"Sandwich shop and café","art":"No","restrooms":"No","accessibility":"Direct","location":"Plaza in front of building main entrance.","year":"1986","source":null,"food":"Y","seating":"Y","description":"This open space is provided in the form of a large plaza fronting California Street. Additionally, two snippets can be found on the west and east sides of the building, connected by an interior walkway. The plaza and east snippet are served by restaurant","seating_and_tables":null,"hours_type":"Open At All Times","subject_to_downtown_pln":"Yes","signage":"None","amenities":null,"block_num":"0261","lot_num":"018","parcel_num":"0261018","restroom":null,"indoor":null,"special_amenities":null,"map_id":null,"latitude":"37.79306","longitude":"-122.40046"}},
{"type":"Feature","geometry":{"type":"Point","coordinates":[-122.40005,37.79286]},"properties":{":id":"row-ykas_84gi~scp7",":version":"rv-bjq4-bsrh_ca5y",":created_at":"2026-05-01T11:02:43.383Z",":updated_at":"2026-05-01T11:02:43.383Z","name":"345 California St - East B","popos_address":"345 California St","hours":"Open at all times","type":"Snippet","landscaping":"Planters with a few trees","seating_no":"15 chairs, 5 tables, 50' linear seating","food_service":"Sandwich shop and café","art":"No","restrooms":"No","accessibility":"Direct","location":"Two snippets on either side of building main entrance, connected by walkway.","year":"1986","source":null,"food":"Y","seating":"Y","description":"Two snippets can be found on the west and east sides of the building, connected by an interior walkway. The west snippet can be entered from Sansome Street, next to the Mandarin Hotel. There is a bench and bamboo in planters. The east snippet is on the B","seating_and_tables":"Y","hours_type":"Open At All Times","subject_to_downtown_pln":"Yes","signage":"None","amenities":null,"block_num":"0261","lot_num":"017","parcel_num":"0261017","restroom":null,"indoor":null,"special_amenities":null,"map_id":null,"latitude":"37.79286","longitude":"-122.40005"}},
{"type":"Feature","geometry":{"type":"Point","coordinates":[-122.40091,37.79263]},"properties":{":id":"row-nx85~9ic4_6944",":version":"rv-tnng.g7bb~scf6",":created_at":"2026-05-01T11:02:43.383Z",":updated_at":"2026-05-01T11:02:43.383Z","name":"345 California St - West C","popos_address":"345 California St","hours":"Open at all times","type":"Snippet","landscaping":"Planters with a few trees","seating_no":"16 chairs, 5 tables, 50' linear seating","food_service":"Sandwich shop and café","art":"No","restrooms":"No","accessibility":"Direct","location":"Two snippets on either side of building main entrance, connected by walkway.","year":"1986","source":null,"food":"Y","seating":"Y","description":"Two snippets can be found on the west and east sides of the building, connected by an interior walkway. The west snippet can be entered from Sansome Street, next to the Mandarin Hotel. There is a bench and bamboo in planters. The east snippet is on the B","seating_and_tables":"Y","hours_type":"Open At All Times","subject_to_downtown_pln":"Yes","signage":"None","amenities":null,"block_num":"0261","lot_num":"017","parcel_num":"0261017","restroom":null,"indoor":null,"special_amenities":null,"map_id":null,"latitude":"37.79263","longitude":"-122.40091"}},
{"type":"Feature","geometry":{"type":"Point","coordinates":[-122.40125,37.79446]},"properties":{":id":"row-8z3q_2me4_inxc",":version":"rv-b35u.t2z5-trbp",":created_at":"2026-05-01T11:02:43.383Z",":updated_at":"2026-05-01T11:02:43.383Z","name":"Embarcadero Center West 1, 2, & 3","popos_address":"1-5 Embarcadero Center","hours":"Open at all times","type":"Pedestrian walkway on ground and 2nd levels","landscaping":"Trees, ferns, arbor, planters","seating_no":"30 tables, 107 chairs, plus planter-side seating, benches.","food_service":"Yes","art":"Yes","restrooms":"No","accessibility":"Direct, indirect","location":"Commercial Street between Drumm and Sansome","year":"1985","source":null,"food":"Y","seating":"Y","description":"Commercial Street throughout Embarcadero 1, 2, and 3 is a pedestrian mall on ground floor and 2nd level, which is accessed by an elaborate staircase system, flanked by waterfalls. Fountains, foliage, art work, and bench seating found throughout.","seating_and_tables":"Y","hours_type":"Open At All Times","subject_to_downtown_pln":"No","signage":"None","amenities":null,"block_num":"0233","lot_num":"044","parcel_num":"0233044","restroom":true,"indoor":null,"special_amenities":null,"map_id":null,"latitude":"37.79446","longitude":"-122.40125"}},
{"type":"Feature","geometry":{"type":"Point","coordinates":[-122.394009,37.790744]},"properties":{":id":"row-xheu~c64k_y4ib",":version":"rv-4eqm~texf~5kqz",":created_at":"2026-05-01T11:02:43.383Z",":updated_at":"2026-05-01T11:02:43.383Z","name":"250 Howard","popos_address":"250 Howard","hours":null,"type":"Urban Park (under construction)","landscaping":null,"seating_no":null,"food_service":null,"art":null,"restrooms":null,"accessibility":null,"location":null,"year":"Under construction","source":null,"food":null,"seating":null,"description":null,"seating_and_tables":null,"hours_type":null,"subject_to_downtown_pln":"Yes","signage":null,"amenities":null,"block_num":"3718","lot_num":"040","parcel_num":"3718040","restroom":null,"indoor":null,"special_amenities":null,"map_id":null,"latitude":"37.790744","longitude":"-122.394009"}},
{"type":"Feature","geometry":{"type":"Point","coordinates":[-122.39779067,37.79175429]},"properties":{":id":"row-sbf8.pqeg~p8t8",":version":"rv-hgxm.sip2-r6rq",":created_at":"2026-05-01T11:02:43.383Z",":updated_at":"2026-05-01T11:02:43.383Z","name":"333 Market St","popos_address":"333 Market St","hours":"Open at all times","type":"Plaza","landscaping":"1 large tree and shrub planters, mostly concrete","seating_no":"105' linear seating","food_service":"Yes","art":"No","restrooms":"No","accessibility":"Direct","location":null,"year":"1979","source":null,"food":"Y","seating":"Y","description":"Open plaza with minimal seating on the edge of planters.","seating_and_tables":null,"hours_type":"Open At All Times","subject_to_downtown_pln":"No","signage":"None","amenities":null,"block_num":"3710","lot_num":"020","parcel_num":"3710020","restroom":true,"indoor":null,"special_amenities":null,"map_id":null,"latitude":"37.79175429","longitude":"-122.39779067"}},
{"type":"Feature","geometry":{"type":"Point","coordinates":[-122.39891,37.7884]},"properties":{":id":"row-6gkz_zuyf_qfxe",":version":"rv-by75_dqfy~a6cc",":created_at":"2026-05-01T11:02:43.383Z",":updated_at":"2026-05-01T11:02:43.383Z","name":"555 Mission St","popos_address":"555 Mission St","hours":"Open at all times","type":"Plaza","landscaping":"9 trees, permeable gravel, bushes","seating_no":"100 linear seats and benches.","food_service":"Yes","art":"Yes","restrooms":"Yes","accessibility":"Direct","location":"Western side of Building, street level.","year":"2008","source":null,"food":"Y","seating":"Y","description":"This large plaza has several art and landscaping features. It is located in front of 555 Mission Streets and runs along the west side of the building. There are several distinct sitting areas with different styles of seating.","seating_and_tables":"Y","hours_type":"Open At All Times","subject_to_downtown_pln":"Yes","signage":"3 signs. 2 old, one current compliant","amenities":null,"block_num":"3721","lot_num":"089","parcel_num":"3721089","restroom":true,"indoor":null,"special_amenities":null,"map_id":null,"latitude":"37.7884","longitude":"-122.39891"}},
{"type":"Feature","geometry":{"type":"Point","coordinates":[-122.396,37.7888]},"properties":{":id":"row-7tu2~kshn~2pur",":version":"rv-ptip~wy3k.7x25",":created_at":"2026-05-01T11:02:43.383Z",":updated_at":"2026-05-01T11:02:43.383Z","name":"Foundry Square NE","popos_address":"400 Howard St","hours":"8AM - 6PM, M-F","type":"Plaza","landscaping":"8 trees","seating_no":"20 linear seats, 24 movable","food_service":"Yes","art":"Yes","restrooms":"No","accessibility":"Direct","location":"Corner of 1st and Howard","year":"2008","source":null,"food":"Y","seating":"Y","description":"This is one of three plazas fronting the intersection of 1st and Howard, forming Foundary Square. It features art sculptures and seating near a cafe.","seating_and_tables":null,"hours_type":"Open At All Times","subject_to_downtown_pln":"Yes","signage":"Yes (2)","amenities":null,"block_num":"3720","lot_num":"008","parcel_num":"3720008","restroom":null,"indoor":null,"special_amenities":null,"map_id":null,"latitude":"37.7888","longitude":"-122.396"}},
{"type":"Feature","geometry":{"type":"Point","coordinates":[-122.39566,37.78852]},"properties":{":id":"row-w3hd.v3g5_t2aw",":version":"rv-wmur~uvfn~bch6",":created_at":"2026-05-01T11:02:43.383Z",":updated_at":"2026-05-01T11:02:43.383Z","name":"Foundry Square SE","popos_address":"405 Howard St","hours":"8AM - 6PM, M-F","type":"Plaza","landscaping":"8 trees","seating_no":"44 movable chairs, 45 linear seats on planter boxes sides.","food_service":"Yes","art":"Yes","restrooms":"No","accessibility":"Direct","location":"Corner of 1st and Howard","year":"2005","source":null,"food":"Y","seating":"Y","description":"This is one of three plazas on the 1st and Howard intersection, forming Foundry Square. This space features a sculpture, landscape, and seating near food services.","seating_and_tables":null,"hours_type":"Open Business Hours","subject_to_downtown_pln":"Yes","signage":"Yes (1, far away from space)","amenities":null,"block_num":"3737","lot_num":"030","parcel_num":"3737030","restroom":true,"indoor":null,"special_amenities":null,"map_id":null,"latitude":"37.78852","longitude":"-122.39566"}},
{"type":"Feature","geometry":{"type":"Point","coordinates":[-122.39631,37.78854]},"properties":{":id":"row-n4uy-rc3n~aj3a",":version":"rv-4ntz.ycvy.t5b2",":created_at":"2026-05-01T11:02:43.383Z",":updated_at":"2026-05-01T11:02:43.383Z","name":"Foundry Square NW","popos_address":"500 Howard St","hours":"Open at all times","type":"Plaza","landscaping":"8 trees, palm plant planters,","seating_no":"44 linear seating on ledges, 21 seating on planter box, 7 tables 28 chairs","food_service":"Yes","art":"Yes","restrooms":"No","accessibility":"Direct","location":"Corner of 1st and Howard","year":"2003","source":null,"food":"Y","seating":"Y","description":"This is one of three plazas on the 1st and Howard intersection, forming Foundry Square. This space features a sculpture, landscape, and seating near food services.","seating_and_tables":"Y","hours_type":"Open At All Times","subject_to_downtown_pln":"Yes","signage":"Location not publicly conspicuous","amenities":null,"block_num":"3721","lot_num":"119","parcel_num":"3721119","restroom":true,"indoor":null,"special_amenities":null,"map_id":null,"latitude":"37.78854","longitude":"-122.39631"}},
{"type":"Feature","geometry":{"type":"Point","coordinates":[-122.39721,37.78618]},"properties":{":id":"row-a2ms~msat~d2nb",":version":"rv-yhaj-qbmk~edy6",":created_at":"2026-05-01T11:02:43.383Z",":updated_at":"2026-05-01T11:02:43.383Z","name":"235 Second St","popos_address":"235 Second St","hours":"8AM - 6PM, M-F","type":"Plaza, Indoor Park","landscaping":"Bamboo and street trees protect space from side street, defines space. Indoor park has bushes and interesting paving.","seating_no":"42 chairs and 15 tables","food_service":"Yes","art":"Yes","restrooms":"No","accessibility":"Direct for plaza. Indirect for indoor park","location":"Urban garden: corner of 2nd and Clementina, indoor park ground floor.","year":"2002","source":null,"food":"Y","seating":"Y","description":"This plaza is located on the corner of 2nd St. and Clementina St. It features several types of seating, served by a cafe.","seating_and_tables":"Y","hours_type":"Open Business Hours","subject_to_downtown_pln":"Yes","signage":"Yes.","amenities":null,"block_num":"3736","lot_num":"123","parcel_num":"3736123","restroom":null,"indoor":true,"special_amenities":null,"map_id":null,"latitude":"37.78618","longitude":"-122.39721"}},
{"type":"Feature","geometry":{"type":"Point","coordinates":[-122.39908,37.78892]},"properties":{":id":"row-hrqx~2qp3-6e8n",":version":"rv-cx4v~ynmg-ffsy",":created_at":"2026-05-01T11:02:43.383Z",":updated_at":"2026-05-01T11:02:43.383Z","name":"560 Mission St","popos_address":"560 Mission St","hours":"Open at all times","type":"Plaza, Indoor Park","landscaping":"bamboo, other trees.","seating_no":"64 movable chairs with 15 tables. 134 linear seating on ledges. 30+ linear bench seats","food_service":"Yes","art":"Yes","restrooms":"Yes","accessibility":"Direct","location":"Plaza: NE side of building; indoor park/arcade along anthony st.","year":"2002","source":null,"food":"Y","seating":"Y","description":"This large plaza features a sculpture in a pool of water, a large bamboo grove, and various forms of seating. It is served by a cafe.","seating_and_tables":"Y","hours_type":"Open At All Times","subject_to_downtown_pln":"Yes","signage":"3 signs. One was small on seat of ledge seating. Other was off to the side. One compliant sign on Jessie St entrance.","amenities":null,"block_num":"3708","lot_num":"095","parcel_num":"3708095","restroom":true,"indoor":true,"special_amenities":null,"map_id":null,"latitude":"37.78892","longitude":"-122.39908"}},
{"type":"Feature","geometry":{"type":"Point","coordinates":[-122.39684,37.78577]},"properties":{":id":"row-6gr3~gi4y.e45f",":version":"rv-ua89~2m4u_ahwb",":created_at":"2026-05-01T11:02:43.383Z",":updated_at":"2026-05-01T11:02:43.383Z","name":"Marriott Courtyard - A (Starbucks)","popos_address":"299 2nd St","hours":"Open at all times","type":"Snippet","landscaping":"Street trees, planters with bushes, flowers","seating_no":"6 linear seats on two benches along sidewalk","food_service":"café across street in hotel lobby","art":"No","restrooms":"Yes","accessibility":"Direct","location":"Bench next to entrance setback 15 feet on 2nd Street.  Per Thayer:  Benches on sidewalk setback on Folsom.","year":"2001","source":null,"food":"Y","seating":"Y","description":"Thayer referenced something that is not part of the open space requirement, this is pedestrian improvement requirement.  Per Thayer:  This open space has benches and landscaping along the sidewalk on Folsom at street level.","seating_and_tables":null,"hours_type":"Open Business Hours","subject_to_downtown_pln":"Yes","signage":"yes one next to door of starbucks. Somewhat removed from the street.","amenities":null,"block_num":"3736","lot_num":"029","parcel_num":"3736029","restroom":true,"indoor":null,"special_amenities":null,"map_id":null,"latitude":"37.78577","longitude":"-122.39684"}},
{"type":"Feature","geometry":{"type":"Point","coordinates":[-122.39668,37.78576]},"properties":{":id":"row-s4p8_qsp8_5sqw",":version":"rv-hb62_kjs2_mbm9",":created_at":"2026-05-01T11:02:43.383Z",":updated_at":"2026-05-01T11:02:43.383Z","name":"Marriott Courtyard - B (Starbucks)","popos_address":"299 2nd St","hours":"8:00am - 5:00pm","type":"Snippet","landscaping":"Street trees, planters with bushes, flowers","seating_no":"15 chairs","food_service":"Café","art":"No","restrooms":"None","accessibility":"Direct","location":"Snippet below grade with stair entry on corner of 2nd & Folsom and wheelchair entry on Folsom.","year":"2001","source":null,"food":"Y","seating":"Y","description":"This open space has a small sitting space below street level on the corner of Folsom and Second, served by a café.","seating_and_tables":null,"hours_type":"Open Business Hours","subject_to_downtown_pln":"Yes","signage":"yes one next to door of starbucks. Somewhat removed from the street.","amenities":null,"block_num":"3736","lot_num":"029","parcel_num":"3736029","restroom":null,"indoor":null,"special_amenities":null,"map_id":null,"latitude":"37.78576","longitude":"-122.39668"}},
{"type":"Feature","geometry":{"type":"Point","coordinates":[-122.39669,37.78611]},"properties":{":id":"row-6yfw.dxjj_sib4",":version":"rv-ubtm~fyzn~b5sq",":created_at":"2026-05-01T11:02:43.383Z",":updated_at":"2026-05-01T11:02:43.383Z","name":"Marriott Courtyard - C","popos_address":"299 2nd St","hours":null,"type":"Interior courtyard area - does not appear to be public (see notes)","landscaping":"Trees and flowers","seating_no":"42 chairs with tables","food_service":"Restaurant service nearby, starbucks outside","art":"Yes","restrooms":"Yes, hotel","accessibility":"Indirect","location":"Inside the hotel courtyard.","year":"2001","source":null,"food":"Y","seating":"Y","description":"This space features extensive landscaping with several art attractions. Comfortable seating arrangements are located throughout the space. Food service nearby inside the hotel.","seating_and_tables":"Y","hours_type":"Open Business Hours","subject_to_downtown_pln":"Yes","signage":"none","amenities":null,"block_num":"3736","lot_num":"27","parcel_num":"373627","restroom":true,"indoor":null,"special_amenities":null,"map_id":null,"latitude":"37.78611","longitude":"-122.39669"}},
{"type":"Feature","geometry":{"type":"Point","coordinates":[-122.39953,37.78803]},"properties":{":id":"row-ffwh_y798~itd3",":version":"rv-jhn3_m6s9.3j5u",":created_at":"2026-05-01T11:02:43.383Z",":updated_at":"2026-05-01T11:02:43.383Z","name":"101 2nd St","popos_address":"101 2nd St","hours":"8AM - 6PM, M-F","type":"Greenhouse","landscaping":"4 large trees and plants","seating_no":"25 linear seats on bench/  ledge. 23 tables, 69 movable chairs","food_service":"Café","art":"Yes","restrooms":"Yes, through main lobby at reception desk (ID required)","accessibility":"Indirect","location":"Ground/Mezz level at 2nd/Mission","year":"2000","source":null,"food":"Y","seating":"Y","description":"This greenhouse features large trees, windows, and art. It has two levels of space and is served by a cafe.","seating_and_tables":"Y","hours_type":"Open Business Hours","subject_to_downtown_pln":"Yes","signage":"2, one at each street entrance","amenities":null,"block_num":"3721","lot_num":"089","parcel_num":"3721089","restroom":true,"indoor":true,"special_amenities":null,"map_id":null,"latitude":"37.78803","longitude":"-122.39953"}},
{"type":"Feature","geometry":{"type":"Point","coordinates":[-122.39491,37.78967]},"properties":{":id":"row-hryv.khg9~yyus",":version":"rv-vn2p.mry8_vibc",":created_at":"2026-05-01T11:02:43.383Z",":updated_at":"2026-05-01T11:02:43.383Z","name":"199 Fremont St","popos_address":"199 Fremont St","hours":"Open at all times","type":"Urban Garden","landscaping":"15 trees, large planters, boulders","seating_no":"Rock planter box seating. Approx 114 linear seats plus 17 individual rocks","food_service":"Café","art":"Yes","restrooms":"No","accessibility":"Direct","location":"On the howard street frontage","year":"2000","source":null,"food":"Y","seating":"Y","description":"This large plaza space features extensive rock landscaping and artwork. There are two adjoined areas, one of which has food service.","seating_and_tables":null,"hours_type":"Open At All Times","subject_to_downtown_pln":"Yes","signage":"yes, on Fremont entrance side","amenities":null,"block_num":"3719","lot_num":"018","parcel_num":"3719018","restroom":true,"indoor":null,"special_amenities":null,"map_id":null,"latitude":"37.78967","longitude":"-122.39491"}},
{"type":"Feature","geometry":{"type":"Point","coordinates":[-122.40146,37.79374]},"properties":{":id":"row-x46n_r2nm~w7gq",":version":"rv-7dz2_pyps.fpim",":created_at":"2026-05-01T11:02:43.383Z",":updated_at":"2026-05-01T11:02:43.383Z","name":"343 Sansome","popos_address":"343 Sansome St","hours":"10AM-5PM, M-F","type":"View Terrace, Public Sitting Area","landscaping":"Abundant flower planters, 6 shading trees, interesting paving and art, great views","seating_no":"10 tables with 20 movable chairs, 48 linear bench seats","food_service":"Food provided along Leidesdorff Street","art":"Yes","restrooms":"Yes. Must ask lobby attendant for key","accessibility":"Indirect","location":"15th floor terrace, and on top of the \"old office tower\" (could be one and the same). Also behind the building Leidesdorff Street, the street is closed during lunch hours","year":"1990","source":null,"food":"Y","seating":"Y","description":"This fifteenth floor open space has excellent views of surrounding buildings and streets, as well as the San Francisco Bay. It has various types of seating and landscaping. It also has art in the form of a large sundial.","seating_and_tables":null,"hours_type":"Open Business Hours","subject_to_downtown_pln":"Yes","signage":"yes, at both entrances. It does not have features listed on the sign. Does have the logo.","amenities":null,"block_num":"0239","lot_num":"020","parcel_num":"0239020","restroom":true,"indoor":null,"special_amenities":null,"map_id":null,"latitude":"37.79374","longitude":"-122.40146"}},
{"type":"Feature","geometry":{"type":"Point","coordinates":[-122.39288583,37.7903972]},"properties":{":id":"row-ipu2_7t6c_hfix",":version":"rv-yih9_9xft.mzph",":created_at":"2026-05-01T11:02:43.383Z",":updated_at":"2026-05-01T11:02:43.383Z","name":"211 Main St","popos_address":"211 Main St","hours":"Open at all times","type":"Plaza","landscaping":"Shrubs and some trees","seating_no":"50' linear seats.","food_service":"No","art":"No","restrooms":"No","accessibility":"Direct","location":null,"year":"1973","source":null,"food":null,"seating":"Y","description":"Open plaza with two benches and a gated children's play area through to Spear Street.","seating_and_tables":null,"hours_type":"Open At All Times","subject_to_downtown_pln":"No","signage":"None","amenities":null,"block_num":"3740","lot_num":"033","parcel_num":"3740033","restroom":true,"indoor":null,"special_amenities":null,"map_id":null,"latitude":"37.7903972","longitude":"-122.39288583"}},
{"type":"Feature","geometry":{"type":"Point","coordinates":[-122.40384,37.79428]},"properties":{":id":"row-a73m_wkf9.6d6g",":version":"rv-tsb8.vant~sqx2",":created_at":"2026-05-01T11:02:43.383Z",":updated_at":"2026-05-01T11:02:43.383Z","name":"Empire Park","popos_address":"642 Commercial St","hours":"Daylight Hours.","type":"Urban Park","landscaping":"Water fountain and lots of plants and shade. Diversity of trees.","seating_no":"15 chairs w/ tables, 8 bench seats in the park, 8 along commercial.","food_service":"There is food service serving the commercial street POPOS, but not directly serving that of Empire park.","art":"No","restrooms":"No","accessibility":"Direct. Gate at sidewalk open during daylight hours.","location":"Along commercial street and at 642 commercial st","year":"1988","source":null,"food":"Y","seating":"Y","description":"Empire park, located at 642 Commercial, is an urban garden that features a water fountain and landscaping. Along Commercial in front of Empire park, there are many widened sidewalk spaces which have benches and landscaping.","seating_and_tables":"Y","hours_type":"Open Business Hours","subject_to_downtown_pln":"Yes","signage":"yes.  Sign is not in compliance, too small, unclear hours, outdated logo.","amenities":null,"block_num":"0227","lot_num":"031","parcel_num":"0227031","restroom":null,"indoor":null,"special_amenities":null,"map_id":null,"latitude":"37.79428","longitude":"-122.40384"}},
{"type":"Feature","geometry":{"type":"Point","coordinates":[-122.39797,37.79358]},"properties":{":id":"row-ppdp-sbsb~mhkr",":version":"rv-dpjc_y2py~2c5z",":created_at":"2026-05-01T11:02:43.383Z",":updated_at":"2026-05-01T11:02:43.383Z","name":"100 California St","popos_address":"100 California St","hours":"Open at all times","type":"Plaza","landscaping":"Pots of flowers","seating_no":"16 movable chairs, 4 tables, 52' of bench seating","food_service":"Yes","art":"No","restrooms":"No","accessibility":"Direct","location":"Ground level exterior open space in the form of plazas and walkways","year":"2013","source":null,"food":"Y","seating":"Y","description":"This is a large plaza with planter boxes, along with smaller spaces along Davis Street. There is also space for food service to serve the plaza in the future.","seating_and_tables":null,"hours_type":"Open At All Times","subject_to_downtown_pln":"Yes","signage":"None","amenities":null,"block_num":"0236","lot_num":"017","parcel_num":"0236017","restroom":null,"indoor":null,"special_amenities":null,"map_id":null,"latitude":"37.79358","longitude":"-122.39797"}},
{"type":"Feature","geometry":{"type":"Point","coordinates":[-122.40228,37.79439]},"properties":{":id":"row-8dfw-bzms-xtt5",":version":"rv-9e5z.f2py-yurf",":created_at":"2026-05-01T11:02:43.383Z",":updated_at":"2026-05-01T11:02:43.383Z","name":"Commercial Street (235 Pine Entitlement)","popos_address":"235 Pine St","hours":"Open at all times","type":"Snippet and lunchtime conversion. Commission was satisfied that it met the guidelines.","landscaping":"5 street trees, 14 planters","seating_no":"8 public seats (bench and planter seats) and many temporary/restaurant seats","food_service":"Yes","art":"No","restrooms":"No","accessibility":"Direct","location":"Commercial street between montgomery and sansome","year":"1984","source":null,"food":"Y","seating":"Y","description":"Linear park improvements along Commercial Street feature various types of trees and concrete linear seating. These spaces are served by many cafés and restaurants along Commercial Street. Additional seating is provided during lunch hours.","seating_and_tables":null,"hours_type":"Unknown","subject_to_downtown_pln":"Yes","signage":"None","amenities":null,"block_num":"0267","lot_num":"015","parcel_num":"0267015","restroom":null,"indoor":null,"special_amenities":null,"map_id":null,"latitude":"37.79439","longitude":"-122.40228"}},
{"type":"Feature","geometry":{"type":"Point","coordinates":[-122.39305,37.79107]},"properties":{":id":"row-2ekg_syqi~ecgi",":version":"rv-erdq-dtwu_gnqv",":created_at":"2026-05-01T11:02:43.383Z",":updated_at":"2026-05-01T11:02:43.383Z","name":"120 Howard St","popos_address":"120 Howard St","hours":"8AM - 6PM, M-F","type":"Uban Garden, Snippet","landscaping":"plants","seating_no":"None.","food_service":"Cart","art":"No","restrooms":"No","accessibility":"Direct","location":"Interior courtyard between the building and the building adjacent to the east","year":"existed before, updates conditioned 2006","source":null,"food":"Y","seating":"Y","description":"This space features plants along the entirety of the snippet and is served by an espresso cart.","seating_and_tables":null,"hours_type":"Open Business Hours","subject_to_downtown_pln":"Yes","signage":"None","amenities":null,"block_num":"3717","lot_num":"019","parcel_num":"3717019","restroom":true,"indoor":null,"special_amenities":null,"map_id":null,"latitude":"37.79107","longitude":"-122.39305"}},
{"type":"Feature","geometry":{"type":"Point","coordinates":[-122.40376,37.78784]},"properties":{":id":"row-u4nw-dapp-5h8y",":version":"rv-74y3.2xrc_gntq",":created_at":"2026-05-01T11:02:43.383Z",":updated_at":"2026-05-01T11:02:43.383Z","name":"1 Kearny St","popos_address":"1 Kearny St","hours":"10AM-5PM, M-F","type":"Sun Terrace","landscaping":"Hedges and other types of plants.","seating_no":"10 6' benches, approximately 20 linear seats","food_service":"No","art":"No","restrooms":"Yes. Must present ID to guard in lobby to get bathroom key.","accessibility":"Indirect. Must enter lobby, sign in, and take elevator to roof.","location":"Rooftop (11th floor)","year":"2006","source":null,"food":null,"seating":"Y","description":"This rooftop terrace has extensive views of Market St. as well as rooftop architecture of nearby buildings. Landscaping and bench seating support this space.","seating_and_tables":null,"hours_type":"Open Business Hours","subject_to_downtown_pln":"Yes","signage":"yes. Three signs: one in front window, one in elevator, and one on rooftop terrace.","amenities":null,"block_num":"0312","lot_num":"031","parcel_num":"0312031","restroom":true,"indoor":null,"special_amenities":null,"map_id":null,"latitude":"37.78784","longitude":"-122.40376"}},
{"type":"Feature","geometry":{"type":"Point","coordinates":[-122.400283,37.789]},"properties":{":id":"row-bhub_9mri.xfdy",":version":"rv-sb6k_ehfb-a5nm",":created_at":"2026-05-01T11:02:43.383Z",":updated_at":"2026-05-01T11:02:43.383Z","name":"55 Second St - A","popos_address":"55 Second St","hours":"8AM - 6PM, M-F","type":"Indoor Park","landscaping":"Increase in potted plant number and variety","seating_no":"62 movable chairs and 27 bench seats","food_service":"No","art":"Yes","restrooms":"Located in hallway between lobby and indoor park","accessibility":"13080","location":"Located inside the historic building, up a set of 3-4 steps. Can be accessed through the main lobby (walk past the elevator bay) and through entrances from Jessie and Stevenson Streets.","year":"2002","source":null,"food":null,"seating":"Y","description":"This large, indoor \"park\" located inside the historia building has a wooden floor, tables with chairs, and large, comfortable leather chairs on a carpeted section near the large window looking out on Stevenson Street.","seating_and_tables":null,"hours_type":"Open Business Hours","subject_to_downtown_pln":"Yes","signage":"Yes, at all three building entrances","amenities":"Games: giant Connect4, ping pong, cornhole","block_num":"3708","lot_num":"096","parcel_num":"3708096","restroom":true,"indoor":true,"special_amenities":true,"map_id":null,"latitude":"37.789","longitude":"-122.400283"}},
{"type":"Feature","geometry":{"type":"Point","coordinates":[-122.40011,37.78895]},"properties":{":id":"row-4g7v.2s6c_cmr4",":version":"rv-yh25~5af3.8t43",":created_at":"2026-05-01T11:02:43.383Z",":updated_at":"2026-05-01T11:02:43.383Z","name":"55 Second St - B","popos_address":"55 Second St","hours":"8AM - 6PM, M-F","type":"Snippet","landscaping":"Plants and trees, uses plant wall to shield users from underground parking entrance","seating_no":"Movable furniture removed; only ~100 ft. of planter ledge seating","food_service":"No","art":"No","restrooms":"Located on south side of building","accessibility":"13080","location":"The urban garden is at the end of Anthony street, at the Jessie Street entrance to the building","year":"2002","source":null,"food":null,"seating":"Y","description":"This space is located outside the rear entry of 55 Second Street. It has planter boxes that serve as seating throughout the plaza.","seating_and_tables":null,"hours_type":"Open Business Hours","subject_to_downtown_pln":"Yes","signage":"Yes, embedded within concrete bench next to Jessie Street entrance to historic building","amenities":null,"block_num":"3708","lot_num":"096","parcel_num":"3708096","restroom":true,"indoor":null,"special_amenities":null,"map_id":null,"latitude":"37.78895","longitude":"-122.40011"}},
{"type":"Feature","geometry":{"type":"Point","coordinates":[-122.39259,37.79208]},"properties":{":id":"row-q6w6~hqur.miyd",":version":"rv-dzmf~nbga.8rsf",":created_at":"2026-05-01T11:02:43.383Z",":updated_at":"2026-05-01T11:02:43.383Z","name":"Rincon Center","popos_address":"121 Spear St","hours":"Open at all times","type":"Indoor Park","landscaping":"Decomposed granite, trees in corners, minimal plants.","seating_no":"78 on benches and chairs. Also, the café provides some of its own seating.","food_service":"Café","art":"Yes","restrooms":"No","accessibility":"Indirect","location":"In the courtyard between 1 and 2 rincon center","year":"1989","source":null,"food":"Y","seating":"Y","description":"This large plaza space is found in the interior courtyard between Rincon Center 1 and Rincon Center 2. It features several art sculptures and different types of seating.","seating_and_tables":null,"hours_type":"Open Business Hours","subject_to_downtown_pln":"Yes","signage":"None","amenities":null,"block_num":"3716","lot_num":"021","parcel_num":"3716021","restroom":true,"indoor":true,"special_amenities":null,"map_id":null,"latitude":"37.79208","longitude":"-122.39259"}},
{"type":"Feature","geometry":{"type":"Point","coordinates":[-122.39423,37.79219]},"properties":{":id":"row-2pdu~4ze2.gb54",":version":"rv-yyw7.9yhs.wq4e",":created_at":"2026-05-01T11:02:43.383Z",":updated_at":"2026-05-01T11:02:43.383Z","name":"123 Mission St","popos_address":"123 Mission St","hours":"Open at all times","type":"Urban Garden","landscaping":"trees and waterfall","seating_no":"122 linear seats","food_service":"Yes","art":"Yes","restrooms":"No","accessibility":"Direct","location":"plaza in front of the building","year":"1986","source":null,"food":"Y","seating":"Y","description":"This large plaza features extensive landscaping and art. Seperate seating areas with seating characterize the area.","seating_and_tables":null,"hours_type":"Open At All Times","subject_to_downtown_pln":"Yes","signage":"None","amenities":null,"block_num":"3717","lot_num":"023","parcel_num":"3717023","restroom":true,"indoor":null,"special_amenities":null,"map_id":null,"latitude":"37.79219","longitude":"-122.39423"}},
{"type":"Feature","geometry":{"type":"Point","coordinates":[-122.3997369,37.79034281]},"properties":{":id":"row-6rm3_yghm~ze36",":version":"rv-mrku~cvqs~g8td",":created_at":"2026-05-01T11:02:43.383Z",":updated_at":"2026-05-01T11:02:43.383Z","name":"525 Market St","popos_address":"525 Market St","hours":"Open at all times","type":"Urban Garden","landscaping":"Plant wall, water feature, abundant street trees, some turf on terraced steps.","seating_no":"168' platform/box seating, 164' terraced steps, ~80 sq. ft. of turf, 11 tables with 44 movable chairs","food_service":"Yes","art":"Yes","restrooms":"No","accessibility":"Direct","location":"Located along Market Street, at the building's side just southwest of main entrance.","year":"1973","source":null,"food":"Y","seating":"Y","description":"This is a two level open space, with granite wall water fountains at the sidewalk level near Market Street and a view to the landscaped space on the second level.","seating_and_tables":null,"hours_type":"Open At All Times","subject_to_downtown_pln":"No","signage":"None","amenities":null,"block_num":"3708","lot_num":"056","parcel_num":"3708056","restroom":null,"indoor":null,"special_amenities":null,"map_id":null,"latitude":"37.79034281","longitude":"-122.3997369"}},
{"type":"Feature","geometry":{"type":"Point","coordinates":[-122.39864,37.79361]},"properties":{":id":"row-tnzi_mxzk~5gpn",":version":"rv-iwgu_ss4v_zswf",":created_at":"2026-05-01T11:02:43.383Z",":updated_at":"2026-05-01T11:02:43.383Z","name":"150 California St","popos_address":"150 California St","hours":"9AM-6PM, M-F","type":"Sun Terrace","landscaping":"Abundant purple plantings, but they take up majority of space. Some tall skinny trees, which provide minimal shade of space definition. Art installation is engaging.","seating_no":"9 tables with 36 movable chairs. ~82 ledge seats","food_service":"No","art":"Yes","restrooms":"No","accessibility":"Indirect","location":"6th Floor","year":"2000","source":null,"food":null,"seating":"Y","description":"This view terrace is located six stories above the street level. There is a large sculpture, long periods of sunlight, and several types of seating. There are extensive views of the surrounding area.","seating_and_tables":"Y","hours_type":"Open Business Hours","subject_to_downtown_pln":"Yes","signage":"one at the entrance with directions","amenities":null,"block_num":"0236","lot_num":"019","parcel_num":"0236019","restroom":true,"indoor":null,"special_amenities":null,"map_id":null,"latitude":"37.79361","longitude":"-122.39864"}},
{"type":"Feature","geometry":{"type":"Point","coordinates":[-122.40487,37.79277]},"properties":{":id":"row-xvz8~mnjy~wfjg",":version":"rv-kr6n.4tx8.skku",":created_at":"2026-05-01T11:02:43.383Z",":updated_at":"2026-05-01T11:02:43.383Z","name":"600 California St","popos_address":"600 California St","hours":"Open at all times","type":"Snippet","landscaping":"Flowers, succulents, shrubbery.","seating_no":"37 seats, 28 are movable.","food_service":"Yes café","art":"Yes","restrooms":"No","accessibility":"Direct","location":"Northwest side of building, up the stairs from California Street beyond an artistic gateway.","year":"1990","source":null,"food":"Y","seating":"Y","description":"A shady open space area with art in the form of sculptures. This snippet found on the northwest side of the building, up the stairs. It adjoins the open space of the adjacent building.","seating_and_tables":null,"hours_type":"Open At All Times","subject_to_downtown_pln":"Yes","signage":"yes","amenities":null,"block_num":"0241","lot_num":"027","parcel_num":"0241027","restroom":true,"indoor":null,"special_amenities":null,"map_id":null,"latitude":"37.79277","longitude":"-122.40487"}},
{"type":"Feature","geometry":{"type":"Point","coordinates":[-122.40652,37.78473]},"properties":{":id":"row-eyxw.yqje.m8q5",":version":"rv-ea77-hyz2-wzii",":created_at":"2026-05-01T11:02:43.383Z",":updated_at":"2026-05-01T11:02:43.383Z","name":"Westfield Sky Terrace (Wesfield Center Mall)","popos_address":"845 Market St","hours":"9AM-5PM M-F","type":"Sun Terrace","landscaping":"Wall planters and 15 basic planters. Great views.","seating_no":"32 tables, 47 movable chairs, 11 movable cushioned chairs, 15 cushioned bench seats","food_service":"None, but food on the premises","art":"No","restrooms":"No","accessibility":"Very indirect","location":"Roof top, 9th floor. Accessible by elevator in 835 Market St (only 1st elevator goes to 9th floor).","year":"2006","source":null,"food":"Y","seating":"Y","description":"This extensive 9th floor rooftop space looks onto the dome of the mall and has views westward and sunlight. It does not have direct food service, but food may be found in the food court below in the mall.","seating_and_tables":null,"hours_type":"Open Business Hours","subject_to_downtown_pln":"Yes","signage":"Yes","amenities":null,"block_num":"3705","lot_num":"054","parcel_num":"3705054","restroom":true,"indoor":null,"special_amenities":null,"map_id":null,"latitude":"37.78473","longitude":"-122.40652"}},
{"type":"Feature","geometry":{"type":"Point","coordinates":[-122.39797,37.7891]},"properties":{":id":"row-ecej_9qxd_pizf",":version":"rv-mmje~gs4q~deid",":created_at":"2026-05-01T11:02:43.383Z",":updated_at":"2026-05-01T11:02:43.383Z","name":"100 1st St","popos_address":"100 1st St","hours":"Ground level arcade space accessible at all times, Sun Terrace open during daylight hours.","type":"Sun Terrace, Indoor Park, Snippet","landscaping":"Many trees and plants, water feature, fake grass for sitting.","seating_no":"52 movable seats at 10 tables plus numerous areas to sit along built-in benches and planters, grassy areas.","food_service":"At ground level","art":"Yes","restrooms":"No","accessibility":"Indirect, \"grand\" staircase","location":"Sun Terrace is on second floor above adjoining parking garage SE of main building. Ground level arcade is on Mission Street side.","year":"1985","source":null,"food":"Y","seating":"Y","description":"The large Sun Terrace features extensive landscaping and seating. Several art sculptures are featured, along with an elevated view of the street below. There is a 'grand' staircase (snippet) up to the Sun Terrace. Ground level arcade in front of building","seating_and_tables":"Y","hours_type":"Open At All Times","subject_to_downtown_pln":"No","signage":"1 small one","amenities":null,"block_num":"3721","lot_num":"001","parcel_num":"3721001","restroom":true,"indoor":null,"special_amenities":null,"map_id":null,"latitude":"37.7891","longitude":"-122.39797"}},
{"type":"Feature","geometry":{"type":"Point","coordinates":[-122.39889,37.79347]},"properties":{":id":"row-zebw-rpjj_mx5b",":version":"rv-zdeq~tz69_qzxj",":created_at":"2026-05-01T11:02:43.383Z",":updated_at":"2026-05-01T11:02:43.383Z","name":"200 California St","popos_address":"200 California St","hours":"Open at all times","type":"Public Sitting Area in Pedestrian Walkway","landscaping":"planter box. Good diversity and volume of plants","seating_no":"24 linear","food_service":"No","art":"Yes","restrooms":"No","accessibility":"Direct","location":"In front of building, sidewalk widening","year":"1990","source":null,"food":null,"seating":"Y","description":"This pedestrian seating area is on a widened sidewalk. Pedestrians may sit on linear seating that forms a planter box. There is a small, public sculpture next to the planter box.","seating_and_tables":null,"hours_type":"Open At All Times","subject_to_downtown_pln":"Yes","signage":"yes","amenities":null,"block_num":"0237","lot_num":"006","parcel_num":"0237006","restroom":null,"indoor":null,"special_amenities":null,"map_id":null,"latitude":"37.79347","longitude":"-122.39889"}},
{"type":"Feature","geometry":{"type":"Point","coordinates":[-122.39938,37.78993]},"properties":{":id":"row-26zx~3mcd.zw2t",":version":"rv-h7vk~jd3m~xwdd",":created_at":"2026-05-01T11:02:43.383Z",":updated_at":"2026-05-01T11:02:43.383Z","name":"49 Stevenson St","popos_address":"49 Stevenson St","hours":"Open at all times","type":"Pedestrian Walkway","landscaping":"No plants, some interesting paving","seating_no":"20 chairs, taken inside before 5pm at time of last site visit.","food_service":"Yes","art":"Yes","restrooms":"Restaurant","accessibility":"Direct","location":"In front of building on Stevenson Street and through a pedestrianized alley to Jessie Street","year":"1984","source":null,"food":"Y","seating":"Y","description":"This pedestrian walkway has small fountains and an art sculpture are featured in this space. Plaza seating is available for patrons of Yank Sing restaurant only.","seating_and_tables":null,"hours_type":"Open At All Times","subject_to_downtown_pln":"No","signage":"None","amenities":null,"block_num":"3708","lot_num":"040","parcel_num":"3708040","restroom":null,"indoor":null,"special_amenities":null,"map_id":null,"latitude":"37.78993","longitude":"-122.39938"}},
{"type":"Feature","geometry":{"type":"Point","coordinates":[-122.3957,37.78522]},"properties":{":id":"row-93ca-krgn-ag2i",":version":"rv-5iup-8cxh_w3my",":created_at":"2026-05-01T11:02:43.383Z",":updated_at":"2026-05-01T11:02:43.383Z","name":"Marathon Plaza","popos_address":"303 Second St","hours":"Open at all times","type":"Urban Garden","landscaping":"Real grass lawns, some planters, large water feature","seating_no":"33 tables with 66 movable chairs, >200' bench seating","food_service":"Yes","art":"Yes","restrooms":"Yes","accessibility":"Direct","location":"In front of building facing Second Street","year":"1982","source":null,"food":"Y","seating":"Y","description":"Large, triangular urban garden facing Second Street with a water feature, ample seating, and lush landscaping. Deli and restaurant open to the park provide food and additional seating.","seating_and_tables":null,"hours_type":"Open At All Times","subject_to_downtown_pln":"No","signage":"None","amenities":null,"block_num":"3749","lot_num":"062","parcel_num":"3749062","restroom":true,"indoor":null,"special_amenities":null,"map_id":null,"latitude":"37.78522","longitude":"-122.3957"}},
{"type":"Feature","geometry":{"type":"Point","coordinates":[-122.39121179,37.79122985]},"properties":{":id":"row-5yyd_4xg7~765d",":version":"rv-u6sg.2eda_ucrx",":created_at":"2026-05-01T11:02:43.383Z",":updated_at":"2026-05-01T11:02:43.383Z","name":"Gap Building","popos_address":"2 Folsom St","hours":"Open at all times","type":"Urban Garden","landscaping":"Trees and plants","seating_no":"76 seats","food_service":"No","art":"Yes","restrooms":"No","accessibility":"Direct","location":"In front of 2 Folsom","year":"2001","source":null,"food":null,"seating":"Y","description":"This is a large plaza with several seating areas. Art sculptures are featured along with diverse landscaping.","seating_and_tables":null,"hours_type":"Open At All Times","subject_to_downtown_pln":"Yes","signage":"none","amenities":null,"block_num":"3741","lot_num":"035","parcel_num":"3741035","restroom":true,"indoor":null,"special_amenities":null,"map_id":null,"latitude":"37.79122985","longitude":"-122.39121179"}},
{"type":"Feature","geometry":{"type":"Point","coordinates":[-122.39372,37.793]},"properties":{":id":"row-cnm4_5jct~we3q",":version":"rv-bmtq_3k5d~wb3h",":created_at":"2026-05-01T11:02:43.383Z",":updated_at":"2026-05-01T11:02:43.383Z","name":"1 Market St","popos_address":"1 Market St","hours":"Open at all times","type":"Plaza and Atrium","landscaping":null,"seating_no":"16 small benches","food_service":"Several restaurants and cafes located within One Market Plaza, open M-F business hours","art":"Yes","restrooms":"Yes, inside One Market Plaza at Mission St. entrance","accessibility":"Indirect","location":"Located along Mission Street at One Market Plaza entrance.","year":"1976","source":null,"food":"Y","seating":"Y","description":"Plaza located on Mission Street along the rear of the building. Some planters with benches.","seating_and_tables":null,"hours_type":"Open At All Times","subject_to_downtown_pln":"No","signage":"None","amenities":null,"block_num":"3717","lot_num":"007","parcel_num":"3717007","restroom":true,"indoor":true,"special_amenities":null,"map_id":null,"latitude":"37.793","longitude":"-122.39372"}},
{"type":"Feature","geometry":{"type":"Point","coordinates":[-122.39978307,37.78902357]},"properties":{":id":"row-6q2m.whrs_ks3d",":version":"rv-5u4b_vuqs-546i",":created_at":"2026-05-01T11:02:43.383Z",":updated_at":"2026-05-01T11:02:43.383Z","name":"71 Stevenson St","popos_address":"71 Stevenson St","hours":"Open at all times","type":"Pedestrian Walkways","landscaping":"Marble paving, potted plants, fountain","seating_no":"Evidence that there was seating during the day, but taken away before 5pm","food_service":"Multiple restaurants","art":"No","restrooms":"No","accessibility":"Direct","location":"Accessible from Stevenson and Jessie St.","year":"1983","source":null,"food":"Y","seating":"Y","description":"The open space connects Stevenson Street and Jessie Street, including planter boxes, a water fountaing, and seating with table outside the cafe.","seating_and_tables":null,"hours_type":"Open At All Times","subject_to_downtown_pln":"No","signage":"None","amenities":null,"block_num":"3708","lot_num":"029","parcel_num":"3708029","restroom":null,"indoor":null,"special_amenities":null,"map_id":null,"latitude":"37.78902357","longitude":"-122.39978307"}},
{"type":"Feature","geometry":{"type":"Point","coordinates":[-122.39788898,37.79076641]},"properties":{":id":"row-gupx-372v_eauw",":version":"rv-irv6~u6em~t7ni",":created_at":"2026-05-01T11:02:43.383Z",":updated_at":"2026-05-01T11:02:43.383Z","name":"14 Fremont St","popos_address":"14 Fremont St","hours":"Open at all times","type":"Pedestrian Walkways","landscaping":"~20 small succulent planter boxes","seating_no":"13 large tables, 27 small tables, 16 bench seats, 106 movable chairs","food_service":"Yes","art":"No","restrooms":"Yes","accessibility":"Direct","location":null,"year":"1983","source":null,"food":"Y","seating":"Y","description":"This open space is a through walkway between Fremont and 1rst Street that opens into an interior plaza.  A farmers market was operating on location.","seating_and_tables":null,"hours_type":"Open At All Times","subject_to_downtown_pln":"No","signage":"None","amenities":null,"block_num":"3709","lot_num":"020","parcel_num":"3709020","restroom":true,"indoor":null,"special_amenities":null,"map_id":null,"latitude":"37.79076641","longitude":"-122.39788898"}},
{"type":"Feature","geometry":{"type":"Point","coordinates":[-122.40279735,37.79363998]},"properties":{":id":"row-abjh-ky6w_3gre",":version":"rv-cdch.yh56_n789",":created_at":"2026-05-01T11:02:43.383Z",":updated_at":"2026-05-01T11:02:43.383Z","name":"456 Montomery St","popos_address":"456 Montgomery St","hours":"Open at all times","type":"Plaza","landscaping":"Few spare plantings, water feature","seating_no":"72' linear seating, 8 movable chairs and 2 tables","food_service":"No","art":"Yes","restrooms":"No","accessibility":"Indirect","location":null,"year":"1983","source":null,"food":null,"seating":"Y","description":"This is a sunken plaza, landscaped with flowers and small water fountains. Escalators are provided to this space.","seating_and_tables":null,"hours_type":"Open At All Times","subject_to_downtown_pln":"No","signage":"None","amenities":null,"block_num":"0239","lot_num":"012","parcel_num":"0239012","restroom":null,"indoor":null,"special_amenities":null,"map_id":null,"latitude":"37.79363998","longitude":"-122.40279735"}},
{"type":"Feature","geometry":{"type":"Point","coordinates":[-122.40079791,37.79047982]},"properties":{":id":"row-iraz-icz2_c7i8",":version":"rv-r3v3.eq56_3cex",":created_at":"2026-05-01T11:02:43.383Z",":updated_at":"2026-05-01T11:02:43.383Z","name":"Citygroup Center","popos_address":"1 Sansome St","hours":null,"type":"Atrium","landscaping":null,"seating_no":"Ample seating at tables with movable chairs.","food_service":"Yes, café/deli","art":null,"restrooms":"Yes","accessibility":null,"location":"Ground floor","year":"1983","source":null,"food":null,"seating":null,"description":"Built with marble, and covered with glass, this greenhouse provides ample seating and tables.","seating_and_tables":null,"hours_type":"Open Business Hours","subject_to_downtown_pln":"No","signage":null,"amenities":null,"block_num":"0289","lot_num":"003","parcel_num":"0289003","restroom":null,"indoor":null,"special_amenities":null,"map_id":null,"latitude":"37.79047982","longitude":"-122.40079791"}},
{"type":"Feature","geometry":{"type":"Point","coordinates":[-122.402717,37.790618]},"properties":{":id":"row-a7hy_wgju-zx5w",":version":"rv-t89i_rpyw_vkpk",":created_at":"2026-05-01T11:02:43.383Z",":updated_at":"2026-05-01T11:02:43.383Z","name":"Trinity Alley","popos_address":"333 Bush St","hours":"Open at all times","type":"Pedestrian Walkways","landscaping":"Living plant wall, trees, tall grasses.","seating_no":"~ 50 linear seats with movable tables.","food_service":"Yes; all along the alley","art":"No","restrooms":"No","accessibility":"Very Direct","location":"Within the public right of way","year":"1983","source":null,"food":"Y","seating":"Y","description":"Alley way with ample seating and greenery outside multiple restaurants.","seating_and_tables":null,"hours_type":"Open At All Times","subject_to_downtown_pln":"No","signage":"None visible","amenities":null,"block_num":"0288","lot_num":"032","parcel_num":"0288032","restroom":true,"indoor":null,"special_amenities":null,"map_id":null,"latitude":"37.790618","longitude":"-122.402717"}},
{"type":"Feature","geometry":{"type":"Point","coordinates":[-122.39337112,37.79154685]},"properties":{":id":"row-mr7e-gf8g-kqry",":version":"rv-yzpf_zxta~y5ry",":created_at":"2026-05-01T11:02:43.383Z",":updated_at":"2026-05-01T11:02:43.383Z","name":"Spear Street Plaza","popos_address":"160 Spear St","hours":"Open at all times","type":"Urban Garden","landscaping":"Diverse grasses, trees, and green wall.","seating_no":"Ledges around green spaces and 28 movable chairs around 7 tables.","food_service":"Yes","art":"Yes","restrooms":"No","accessibility":"Very Direct","location":"Outdoor alleyway off of Spear Street","year":"1983","source":null,"food":"Y","seating":"Y","description":"Well landscaped walkway with seating and tables.","seating_and_tables":null,"hours_type":"Open At All Times","subject_to_downtown_pln":"No","signage":"None","amenities":null,"block_num":"3717","lot_num":"005","parcel_num":"3717005","restroom":true,"indoor":null,"special_amenities":null,"map_id":null,"latitude":"37.79154685","longitude":"-122.39337112"}},
{"type":"Feature","geometry":{"type":"Point","coordinates":[-122.39879604,37.78961221]},"properties":{":id":"row-ph9r_avnz_7ens",":version":"rv-mmgh_uzpn~xuh3",":created_at":"2026-05-01T11:02:43.383Z",":updated_at":"2026-05-01T11:02:43.383Z","name":"25 Jessie St","popos_address":"25 Jessie St","hours":"Open at all times","type":"Pedestrian Walkways","landscaping":"Great variety of plants, water feature, elevated planters with tall trees draw eye up","seating_no":"Ledges around the water feature (>100 linear feet)","food_service":"None directly available, but some in adjacent alley","art":"No","restrooms":"Would have had to go through security","accessibility":"Slightly indirect (one side fenced)","location":null,"year":"1983","source":null,"food":null,"seating":"Y","description":"This urban garden include a water feature combined with a tall art piece. Seating available on the ledeges of raised water feature.","seating_and_tables":"Y","hours_type":"Open At All Times","subject_to_downtown_pln":"No","signage":"None","amenities":null,"block_num":"3708","lot_num":"097","parcel_num":"3708097","restroom":null,"indoor":null,"special_amenities":null,"map_id":null,"latitude":"37.78961221","longitude":"-122.39879604"}},
{"type":"Feature","geometry":{"type":"Point","coordinates":[-122.39162755,37.79094499]},"properties":{":id":"row-4ykv~wy7a~xrfy",":version":"rv-68s7.h2ng-qyry",":created_at":"2026-05-01T11:02:43.383Z",":updated_at":"2026-05-01T11:02:43.383Z","name":"201 Spear St","popos_address":"201 Spear St","hours":"Open at all times","type":"Urban Garden","landscaping":null,"seating_no":null,"food_service":null,"art":null,"restrooms":null,"accessibility":null,"location":null,"year":"1982","source":null,"food":null,"seating":null,"description":"Plaza with seating along planters.","seating_and_tables":null,"hours_type":"Open At All Times","subject_to_downtown_pln":"No","signage":"None","amenities":null,"block_num":"3741","lot_num":"032","parcel_num":"3741032","restroom":null,"indoor":null,"special_amenities":null,"map_id":null,"latitude":"37.79094499","longitude":"-122.39162755"}},
{"type":"Feature","geometry":{"type":"Point","coordinates":[-122.4028214,37.78927548]},"properties":{":id":"row-ivvy-5yrr-4r9q",":version":"rv-32bz~6w8p.xhuu",":created_at":"2026-05-01T11:02:43.383Z",":updated_at":"2026-05-01T11:02:43.383Z","name":"Crocker Galleria","popos_address":"165 Sutter St","hours":"6AM-7PM, M-SAT","type":"Sun Terrace","landscaping":"8 large planter with trees, shrubbery around edge planters.","seating_no":"24 benches measuring 7'8\"","food_service":"In building below.","art":"No","restrooms":"Yes","accessibility":"Very Indirect","location":"Third floor of shopping center, down dark hallway.","year":"1982","source":null,"food":"Y","seating":"Y","description":null,"seating_and_tables":null,"hours_type":"Open Business Hours","subject_to_downtown_pln":"No","signage":"No. Sign in interior atrium only says \"roof garden\"","amenities":null,"block_num":"0292","lot_num":"002","parcel_num":"0292002","restroom":true,"indoor":null,"special_amenities":null,"map_id":null,"latitude":"37.78927548","longitude":"-122.4028214"}},
{"type":"Feature","geometry":{"type":"Point","coordinates":[-122.39426674,37.78968512]},"properties":{":id":"row-yv28.kysy.3szt",":version":"rv-3yuh~cpnp.mphu",":created_at":"2026-05-01T11:02:43.383Z",":updated_at":"2026-05-01T11:02:43.383Z","name":"301 Howard St","popos_address":"301 Howard St","hours":"Open at all times","type":"Urban Garden","landscaping":null,"seating_no":null,"food_service":null,"art":null,"restrooms":null,"accessibility":null,"location":null,"year":"1981","source":null,"food":null,"seating":null,"description":"Landscaped seating area located kitty-corner to 301 Howard.","seating_and_tables":null,"hours_type":"Open At All Times","subject_to_downtown_pln":"No","signage":"None","amenities":null,"block_num":"3738","lot_num":"012","parcel_num":"3738012","restroom":null,"indoor":null,"special_amenities":null,"map_id":null,"latitude":"37.78968512","longitude":"-122.39426674"}},
{"type":"Feature","geometry":{"type":"Point","coordinates":[-122.39868154,37.79167436]},"properties":{":id":"row-g4wf_2h59_msxr",":version":"rv-qhi8-ubbc.bdfs",":created_at":"2026-05-01T11:02:43.383Z",":updated_at":"2026-05-01T11:02:43.383Z","name":"444 Market  St","popos_address":"444 Market St","hours":"Open at all times","type":"Plaza","landscaping":"Trees create space definition but space is mostly hard paving","seating_no":"8 movable chairs, 4 tables, 7 linear seats attached to 4 tables, ~50 ft. linear seating on statue ledge","food_service":"Yes","art":"Yes","restrooms":"No","accessibility":"Diect","location":null,"year":"1980","source":null,"food":"Y","seating":"Y","description":"Plaza with no seating.","seating_and_tables":null,"hours_type":"Open At All Times","subject_to_downtown_pln":"No","signage":"None","amenities":"Solar charging station","block_num":"0266","lot_num":"009","parcel_num":"0266009","restroom":null,"indoor":null,"special_amenities":true,"map_id":null,"latitude":"37.79167436","longitude":"-122.39868154"}},
{"type":"Feature","geometry":{"type":"Point","coordinates":[-122.39221925,37.79073351]},"properties":{":id":"row-yf4u_jaff_qse3",":version":"rv-5id3~96x7-9zfa",":created_at":"2026-05-01T11:02:43.383Z",":updated_at":"2026-05-01T11:02:43.383Z","name":"180 Howard St","popos_address":"180 Howard St","hours":"8AM - 6PM, M-F","type":"Pedestrian Walkways","landscaping":"Trees and wall of planters with tall grass.","seating_no":"12 linear seats","food_service":"Yes","art":"No","restrooms":"No","accessibility":"Direct","location":null,"year":"1980","source":null,"food":"Y","seating":null,"description":"A cul-de-sac walkway with benches at the end.","seating_and_tables":null,"hours_type":"Open At All Times","subject_to_downtown_pln":"No","signage":"None","amenities":null,"block_num":"3717","lot_num":"020","parcel_num":"3717020","restroom":true,"indoor":null,"special_amenities":null,"map_id":null,"latitude":"37.79073351","longitude":"-122.39221925"}},
{"type":"Feature","geometry":{"type":"Point","coordinates":[-122.40072729,37.78900186]},"properties":{":id":"row-ihb2.jrgt~xr7h",":version":"rv-66xz-bb2c.wecf",":created_at":"2026-05-01T11:02:43.383Z",":updated_at":"2026-05-01T11:02:43.383Z","name":"595 Market St","popos_address":"595 Market St","hours":"Open at all times","type":"Plaza","landscaping":"No landscaping or spatial definition","seating_no":"Public seating only on stairs. Restaurant dominates space with private seating","food_service":"Yes","art":"No","restrooms":"No","accessibility":"Direct","location":null,"year":"1979","source":null,"food":"Y","seating":null,"description":"This plaza is located on 2nd. Street and Stevenson. Seating is only available on the steps beyon the table and seating provided for the food establishment.","seating_and_tables":"N","hours_type":"Open At All Times","subject_to_downtown_pln":"Voluntary POPOS","signage":"None","amenities":null,"block_num":"3708","lot_num":"043","parcel_num":"3708043","restroom":null,"indoor":null,"special_amenities":null,"map_id":null,"latitude":"37.78900186","longitude":"-122.40072729"}},
{"type":"Feature","geometry":{"type":"Point","coordinates":[-122.39254577,37.79015362]},"properties":{":id":"row-pcna_n3a8_qdnk",":version":"rv-qrtb_mcbw.zpn5",":created_at":"2026-05-01T11:02:43.383Z",":updated_at":"2026-05-01T11:02:43.383Z","name":"221 Main St","popos_address":"221 Main St","hours":"Open at all times","type":"Plaza","landscaping":"Succulents and grasses","seating_no":"24' of linear seats.","food_service":"No","art":"No","restrooms":"No","accessibility":"Direct","location":null,"year":"1974","source":null,"food":null,"seating":"Y","description":"An open plaza with some seating, landscaping and planters.","seating_and_tables":null,"hours_type":"Open At All Times","subject_to_downtown_pln":"No","signage":"None","amenities":null,"block_num":"3740","lot_num":"034","parcel_num":"3740034","restroom":true,"indoor":null,"special_amenities":null,"map_id":null,"latitude":"37.79015362","longitude":"-122.39254577"}},
{"type":"Feature","geometry":{"type":"Point","coordinates":[-122.40216798,37.79505236]},"properties":{":id":"row-pxch_6ua7_ditf",":version":"rv-q529-th9s~u2kg",":created_at":"2026-05-01T11:02:43.383Z",":updated_at":"2026-05-01T11:02:43.383Z","name":"Redwood Park","popos_address":"535 Washington St","hours":"Not posted. Closes before 6pm","type":"Urban Park","landscaping":"Many redwood trees, diverse ground cover and plantings, flowers, shrubs. Multiple smaller spaces defined within park","seating_no":"100+ linear seats on boxes, room for 30+ on steps. No movable.","food_service":"No","art":"Yes","restrooms":"No","accessibility":"Direct","location":null,"year":"1972","source":null,"food":"Y","seating":"Y","description":"This extensively landscaped urban park offers redwood trees at the foot of the Transamerica Pyramid. It features, a tall water fountain, sculptures, and ample seating.","seating_and_tables":"Y","hours_type":"Open Business Hours","subject_to_downtown_pln":"No","signage":"None","amenities":null,"block_num":"0207","lot_num":"033","parcel_num":"0207033","restroom":null,"indoor":null,"special_amenities":null,"map_id":null,"latitude":"37.79505236","longitude":"-122.40216798"}},
{"type":"Feature","geometry":{"type":"Point","coordinates":[-122.39753052,37.79380746]},"properties":{":id":"row-mpbw-q3z7~quja",":version":"rv-yjan~a4dq~tmpv",":created_at":"2026-05-01T11:02:43.383Z",":updated_at":"2026-05-01T11:02:43.383Z","name":"50 California St","popos_address":"50 California St","hours":"Open at all times","type":"Snippet","landscaping":"Good tree cover and plantings, define space and provide shade","seating_no":"14 movable chairs, 117 linear ft. of bench, another 30' on other side of building","food_service":"Starbucks","art":"Yes","restrooms":"No","accessibility":"Direct","location":null,"year":"1970","source":null,"food":"Y","seating":"Y","description":"Plaza and wrap around walkway with seating along planters.","seating_and_tables":null,"hours_type":"Open At All Times","subject_to_downtown_pln":"No","signage":"None","amenities":null,"block_num":"0235","lot_num":"022","parcel_num":"0235022","restroom":null,"indoor":null,"special_amenities":null,"map_id":null,"latitude":"37.79380746","longitude":"-122.39753052"}},
{"type":"Feature","geometry":{"type":"Point","coordinates":[-122.39915923,37.79273921]},"properties":{":id":"row-a72e-swjq~4pr5",":version":"rv-wqdn~fqzz.r387",":created_at":"2026-05-01T11:02:43.383Z",":updated_at":"2026-05-01T11:02:43.383Z","name":"100 Pine St","popos_address":"100 Pine St","hours":null,"type":"Urban Garden","landscaping":"Planting and flowers","seating_no":null,"food_service":"Yes.","art":null,"restrooms":null,"accessibility":null,"location":null,"year":"1972","source":null,"food":"Y","seating":"Y","description":"This Urban Garden is either accessed through the front entrance of the building or a narrow walkway on Front Street. This space offers water fountains, landscaping, and art.","seating_and_tables":"Y","hours_type":"Open Business Hours","subject_to_downtown_pln":"No","signage":null,"amenities":null,"block_num":"0262","lot_num":"020","parcel_num":"0262020","restroom":null,"indoor":null,"special_amenities":null,"map_id":null,"latitude":"37.79273921","longitude":"-122.39915923"}},
{"type":"Feature","geometry":{"type":"Point","coordinates":[-122.39868143,37.78915139]},"properties":{":id":"row-u3cv-unbm~4vmg",":version":"rv-iuft-r9qf_rdrs",":created_at":"2026-05-01T11:02:43.383Z",":updated_at":"2026-05-01T11:02:43.383Z","name":"Golden Gate University","popos_address":"536 Mission St","hours":"Open at all times","type":"Snippet","landscaping":"No","seating_no":"200+ ft. of linear bench","food_service":"No","art":"No","restrooms":"Yes","accessibility":"Direct","location":"Along Mission Street.","year":"1972","source":null,"food":null,"seating":"Y","description":"Concrete seating streches along the passage that connects the recessed entrance of Golden Gate University to the sidewalk on Mission Street.","seating_and_tables":"N","hours_type":"Open At All Times","subject_to_downtown_pln":"No","signage":"None","amenities":null,"block_num":"3708","lot_num":"098","parcel_num":"3708098","restroom":true,"indoor":null,"special_amenities":null,"map_id":null,"latitude":"37.78915139","longitude":"-122.39868143"}},
{"type":"Feature","geometry":{"type":"Point","coordinates":[-122.39728414,37.79335343]},"properties":{":id":"row-zwbc_ts94.x6v3",":version":"rv-8yuc.awu8.dek9",":created_at":"2026-05-01T11:02:43.383Z",":updated_at":"2026-05-01T11:02:43.383Z","name":"1 California St","popos_address":"1 California St","hours":"Open at all times","type":"Snippet","landscaping":"One tree, minimal.","seating_no":"12 tables with 46 non-movable chairs. 38 linear ft. seating","food_service":"2 cafes","art":"No","restrooms":"No","accessibility":"Direct","location":null,"year":"1970","source":null,"food":"Y","seating":"Y","description":"Wrap around plaza area with seating near food services.","seating_and_tables":null,"hours_type":"Open At All Times","subject_to_downtown_pln":"No","signage":"None","amenities":null,"block_num":"0264","lot_num":"004","parcel_num":"0264004","restroom":null,"indoor":null,"special_amenities":null,"map_id":null,"latitude":"37.79335343","longitude":"-122.39728414"}},
{"type":"Feature","geometry":{"type":"Point","coordinates":[-122.39622554,37.79173693]},"properties":{":id":"row-kd32.ad7e.gjn3",":version":"rv-k5mt_2m82~cfd5",":created_at":"2026-05-01T11:02:43.383Z",":updated_at":"2026-05-01T11:02:43.383Z","name":"77 Beale St","popos_address":"77 Beale St","hours":"Open at all times","type":"Plaza","landscaping":"20+ planter trees, open planters, waterfall feature","seating_no":"200+ linear feet of planter seating, varying heights","food_service":"No","art":"No","restrooms":"No","accessibility":"Direct","location":null,"year":"1970","source":null,"food":null,"seating":"Y","description":"Plaza with high planters that provide some landscaping but no seating.","seating_and_tables":null,"hours_type":"Open At All Times","subject_to_downtown_pln":"No","signage":"None","amenities":null,"block_num":"3711","lot_num":"013","parcel_num":"3711013","restroom":null,"indoor":null,"special_amenities":null,"map_id":null,"latitude":"37.79173693","longitude":"-122.39622554"}},
{"type":"Feature","geometry":{"type":"Point","coordinates":[-122.40395114,37.7924598]},"properties":{":id":"row-sg6j.2m8u~v6vn",":version":"rv-uw9p.2txm-2679",":created_at":"2026-05-01T11:02:43.383Z",":updated_at":"2026-05-01T11:02:43.383Z","name":"555 California St","popos_address":"555 California St","hours":"Open at all times","type":"Urban Garden","landscaping":"Tall grasses and shrubs, central pool surrounded by plants.","seating_no":"Yes- 24 small wooden bench seats located at elevated plaza's eastern edge.","food_service":"No","art":"No","restrooms":"No","accessibility":"Direct","location":"Located at the elevated plaza along California Street.","year":"1969","source":null,"food":null,"seating":"Y","description":null,"seating_and_tables":null,"hours_type":"Open At All Times","subject_to_downtown_pln":"No","signage":"None","amenities":null,"block_num":"0259","lot_num":"026","parcel_num":"0259026","restroom":true,"indoor":null,"special_amenities":null,"map_id":null,"latitude":"37.7924598","longitude":"-122.40395114"}},
{"type":"Feature","geometry":{"type":"Point","coordinates":[-122.40264635,37.78862256]},"properties":{":id":"row-xwip_744z_q2tn",":version":"rv-387i_q4iy-5gbw",":created_at":"2026-05-01T11:02:43.383Z",":updated_at":"2026-05-01T11:02:43.383Z","name":"1 Post St","popos_address":"1 Post St","hours":null,"type":"Snippet","landscaping":null,"seating_no":null,"food_service":null,"art":null,"restrooms":null,"accessibility":null,"location":null,"year":"1969","source":null,"food":null,"seating":null,"description":"Snippets surrounding the hexagonal fence of Montgomery Bart Station sunken plaza. This space include concrete steps with some planter boxes.","seating_and_tables":null,"hours_type":"Open At All Times","subject_to_downtown_pln":"No","signage":null,"amenities":null,"block_num":"0259","lot_num":"026","parcel_num":"0259026","restroom":null,"indoor":null,"special_amenities":null,"map_id":null,"latitude":"37.78862256","longitude":"-122.40264635"}},
{"type":"Feature","geometry":{"type":"Point","coordinates":[-122.39691639,37.79160342]},"properties":{":id":"row-3m5h~tsrh_82kj",":version":"rv-p8dg-qm4z_aeja",":created_at":"2026-05-01T11:02:43.383Z",":updated_at":"2026-05-01T11:02:43.383Z","name":"50 Beale St","popos_address":"50 Beale St","hours":"Open at all times","type":"Plaza","landscaping":"30+ trees, large open planters, attracts birds","seating_no":"40 bench seats; 100+ linear feet of planter seating","food_service":"No","art":"No","restrooms":"No","accessibility":"Less direct","location":null,"year":"1968","source":null,"food":null,"seating":"Y","description":"Large well landscaped plaza with many seating options.","seating_and_tables":null,"hours_type":"Open At All Times","subject_to_downtown_pln":"No","signage":"None","amenities":null,"block_num":"3710","lot_num":"018","parcel_num":"3710018","restroom":null,"indoor":null,"special_amenities":null,"map_id":null,"latitude":"37.79160342","longitude":"-122.39691639"}},
{"type":"Feature","geometry":{"type":"Point","coordinates":[-122.4001579,37.78975722]},"properties":{":id":"row-7e2y.f7v8-3t4r",":version":"rv-kx22_ad9t.ugja",":created_at":"2026-05-01T11:02:43.383Z",":updated_at":"2026-05-01T11:02:43.383Z","name":"555/557 Market St","popos_address":"555/557 Market St","hours":"Open at all times","type":"Urban Garden","landscaping":"Diverse plants, grasses, and water feature.","seating_no":"No Seating","food_service":"No","art":"No","restrooms":"Yes","accessibility":"Direct","location":null,"year":"1965","source":null,"food":null,"seating":null,"description":"Extensive landscaping combined with water features signify this space between two high rises. Seating,however, is only availabe to employees.","seating_and_tables":"N","hours_type":"Open At All Times","subject_to_downtown_pln":"No","signage":"None","amenities":null,"block_num":"3708","lot_num":"174","parcel_num":"3708174","restroom":true,"indoor":null,"special_amenities":null,"map_id":null,"latitude":"37.78975722","longitude":"-122.4001579"}},
{"type":"Feature","geometry":{"type":"Point","coordinates":[-122.40520017,37.79305037]},"properties":{":id":"row-tzi5-7jcj~9nk6",":version":"rv-vpxj_5w6r.4ati",":created_at":"2026-05-01T11:02:43.383Z",":updated_at":"2026-05-01T11:02:43.383Z","name":"650 California St","popos_address":"650 California St","hours":"Open at all times","type":"Plaza","landscaping":null,"seating_no":null,"food_service":"No","art":"Yes","restrooms":"Yes","accessibility":"Indirect","location":null,"year":"1965","source":null,"food":"Y","seating":"Y","description":"This open space is elevated with the street slope. A large art piece represents one entrance to the open space on California Street. This space surrounds the building and offers seating on the ledges of planter boxes.","seating_and_tables":"N","hours_type":"Open At All Times","subject_to_downtown_pln":"No","signage":"Yes","amenities":null,"block_num":"0241","lot_num":"025","parcel_num":"0241025","restroom":true,"indoor":null,"special_amenities":null,"map_id":null,"latitude":"37.79305037","longitude":"-122.40520017"}},
{"type":"Feature","geometry":{"type":"Point","coordinates":[-122.39673063,37.78516765]},"properties":{":id":"row-r7ae_n5qb.eqcs",":version":"rv-jgez-idhy~8m7s",":created_at":"2026-05-01T11:02:43.383Z",":updated_at":"2026-05-01T11:02:43.383Z","name":"611 Folsom St","popos_address":"611 Folsom St","hours":"Open at all times","type":"Plaza","landscaping":"7 trees, 6 bushes on sidewalk. Interesting architectural elements and unconventional use of brick.","seating_no":">200' deep brick ledge seating","food_service":"No","art":"No","restrooms":"No","accessibility":"Direct","location":null,"year":"1965","source":null,"food":null,"seating":"Y","description":"Brick plaza with some trees, artwork and seating on brick structures.","seating_and_tables":null,"hours_type":"Open At All Times","subject_to_downtown_pln":"No","signage":"None","amenities":null,"block_num":"3750","lot_num":"087","parcel_num":"3750087","restroom":null,"indoor":null,"special_amenities":null,"map_id":null,"latitude":"37.78516765","longitude":"-122.39673063"}},
{"type":"Feature","geometry":{"type":"Point","coordinates":[-122.39516089,37.79096222]},"properties":{":id":"row-yhi4-n5cp-iygn",":version":"rv-7c6q~neii.cprm",":created_at":"2026-05-01T11:02:43.383Z",":updated_at":"2026-05-01T11:02:43.383Z","name":"201 Mission St","popos_address":"201 Mission St","hours":null,"type":"Urban Garden","landscaping":null,"seating_no":null,"food_service":null,"art":null,"restrooms":null,"accessibility":"Direct","location":null,"year":"1960","source":null,"food":null,"seating":null,"description":"Initially hidden from street view there is seating along the building setback area to the right as you walk toward the door.","seating_and_tables":null,"hours_type":"Open At All Times","subject_to_downtown_pln":"No","signage":"None","amenities":null,"block_num":"3718","lot_num":"026","parcel_num":"3718026","restroom":null,"indoor":null,"special_amenities":null,"map_id":null,"latitude":"37.79096222","longitude":"-122.39516089"}},
{"type":"Feature","geometry":{"type":"Point","coordinates":[-122.40045257,37.79098054]},"properties":{":id":"row-evyz.s63i_a2n7",":version":"rv-6w9v.yhpm_b3uy",":created_at":"2026-05-01T11:02:43.383Z",":updated_at":"2026-05-01T11:02:43.383Z","name":"1 Bush Street","popos_address":"1 Bush Street","hours":"Open at all times","type":"Urban Garden","landscaping":"Willow Trees and planting. Interseting architectural design","seating_no":"None besides steps.","food_service":"No","art":"Yes","restrooms":"No","accessibility":"Indirect","location":"Below street level","year":"1959","source":null,"food":null,"seating":null,"description":"This Urban Garden provides a sunken space featuring a water fountain. Space is accessed with stairs from Bush Street and curved walkways from Market street.","seating_and_tables":"N","hours_type":"Open At All Times","subject_to_downtown_pln":"No","signage":"None","amenities":null,"block_num":"0290","lot_num":"011","parcel_num":"0290011","restroom":null,"indoor":null,"special_amenities":null,"map_id":null,"latitude":"37.79098054","longitude":"-122.40045257"}},
{"type":"Feature","geometry":{"type":"Point","coordinates":[-122.39823,37.78638]},"properties":{":id":"row-8sx7~nw54_vtzt",":version":"rv-w456.pzt9~e4pw",":created_at":"2026-05-01T11:02:43.383Z",":updated_at":"2026-05-01T11:02:43.383Z","name":"222 2nd St","popos_address":"222 2nd St","hours":"8AM - 6PM, M-F","type":"Greenhouse","landscaping":"No plants, but warm wood walls, striking art.","seating_no":"63 movable chairs, 15 tables, 300+ linear ft. of seating","food_service":"Yes, cafe","art":"Yes","restrooms":"Yes","accessibility":"Direct","location":"Ground floor lobby","year":"2016","source":null,"food":"Y","seating":"Y","description":"An enclosed open space, with operable floor to ceiling windows and doors; located within the street-level lobby.","seating_and_tables":"Y","hours_type":"Open Business Hours","subject_to_downtown_pln":"Yes","signage":"yes","amenities":"Wifi","block_num":"3735","lot_num":"063","parcel_num":"3735063","restroom":true,"indoor":true,"special_amenities":true,"map_id":null,"latitude":"37.78638","longitude":"-122.39823"}},
{"type":"Feature","geometry":{"type":"Point","coordinates":[-122.396685,37.791]},"properties":{":id":"row-gyze.2y26.kkr9",":version":"rv-8gun.jdnr-tpj9",":created_at":"2026-05-01T11:02:43.383Z",":updated_at":"2026-05-01T11:02:43.383Z","name":"350 Mission St","popos_address":"350 Mission St","hours":"8AM-5PM, M-F","type":"Interior open space at ground level, specific type not specified in motion (Greenhouse?)","landscaping":"fake trees and grass indoors","seating_no":"35 linear bench seats + amphitheater seating (original estimate at 85 seats total)","food_service":"No","art":"No","restrooms":"No","accessibility":"Direct","location":"Lobby entrance","year":"2011","source":null,"food":null,"seating":"Y","description":"An enclosed open space, with operable sliding glass doors that open up to street frontage; located within the street-level lobby.","seating_and_tables":null,"hours_type":"Open Business Hours","subject_to_downtown_pln":"Yes","signage":"Yes, outside at front door.","amenities":"Amphitheater","block_num":"3710","lot_num":"017","parcel_num":"3710017","restroom":null,"indoor":true,"special_amenities":true,"map_id":null,"latitude":"37.791","longitude":"-122.396685"}},
{"type":"Feature","geometry":{"type":"Point","coordinates":[-122.3961,37.7882]},"properties":{":id":"row-xwie.8v5z-xbgt",":version":"rv-fnmb.kfsb_hc2e",":created_at":"2026-05-01T11:02:43.383Z",":updated_at":"2026-05-01T11:02:43.383Z","name":"Foundry Square SW (indoor)","popos_address":"505-525 Howard St (200 1st St)","hours":"8AM - 6PM, M-F","type":"Indoor Park","landscaping":"8 trees","seating_no":"25 movable seats, 6 tables, 47 linear bench seats","food_service":"Yes- Café","art":"No","restrooms":"Yes","accessibility":"Direct","location":"Near main building entrance facing the outdoor POPOS.","year":"2008","source":null,"food":"Y","seating":"Y","description":"Indoor park, with art garden, seating, and a café.","seating_and_tables":null,"hours_type":"Open Business Hours","subject_to_downtown_pln":"Yes","signage":"Yes (2)","amenities":"Café area with wifi","block_num":"3736","lot_num":"114","parcel_num":"3736114","restroom":true,"indoor":true,"special_amenities":true,"map_id":null,"latitude":"37.7882","longitude":"-122.3961"}},
{"type":"Feature","geometry":{"type":"Point","coordinates":[-122.3961,37.7882]},"properties":{":id":"row-79wz.gpnx-8hxz",":version":"rv-6fda~3fmx_66iq",":created_at":"2026-05-01T11:02:43.383Z",":updated_at":"2026-05-01T11:02:43.383Z","name":"Foundry Square SW (outdoor)","popos_address":"505-525 Howard St (200 1st St)","hours":"8AM - 6PM, M-F","type":"Plaza","landscaping":"8 trees","seating_no":"25 movable seats, 6 tables, 47 linear bench seats","food_service":"Yes- Café","art":"No","restrooms":"Yes","accessibility":"Direct","location":"Near main building entrance facing the outdoor POPOS.","year":"2008","source":null,"food":"Y","seating":"Y","description":"Street level outdoor plaza with fixed and flexible seating, tables, and maple trees","seating_and_tables":null,"hours_type":"Open Business Hours","subject_to_downtown_pln":"Yes","signage":"Yes (2)","amenities":null,"block_num":"3736","lot_num":"114","parcel_num":"3736114","restroom":true,"indoor":null,"special_amenities":null,"map_id":null,"latitude":"37.7882","longitude":"-122.3961"}},
{"type":"Feature","geometry":{"type":"Point","coordinates":[-122.398,37.793249]},"properties":{":id":"row-4pdd-36ff-bbze",":version":"rv-9yg4-4huw-thch",":created_at":"2026-05-01T11:02:43.383Z",":updated_at":"2026-05-01T11:02:43.383Z","name":"101 California St","popos_address":"101 California Street","hours":"Open at all times","type":"Plaza","landscaping":"Beautifl terraced seating with abundant plantings","seating_no":"~1000 linear ft. of seating on terraced steps, many cushions available","food_service":"Yes","art":"No","restrooms":"No","accessibility":"Direct","location":"Street level plaza at California and Davis Streets.","year":"1982","source":null,"food":"Y","seating":"Y","description":null,"seating_and_tables":null,"hours_type":"Open At All Times","subject_to_downtown_pln":"No","signage":"None","amenities":null,"block_num":"0263","lot_num":"011","parcel_num":"0263011","restroom":null,"indoor":null,"special_amenities":null,"map_id":null,"latitude":"37.793249","longitude":"-122.398"}},
{"type":"Feature","geometry":{"type":"Point","coordinates":[-122.407839,37.78219483]},"properties":{":id":"row-3w25.qstw.wa7m",":version":"rv-fffr.qt73~apt4",":created_at":"2026-05-01T11:02:43.383Z",":updated_at":"2026-05-01T11:02:43.383Z","name":"Hampton Inn","popos_address":"942 Mission Street","hours":"10AM-5PM, M-F","type":"View Terrace","landscaping":"6 empty planters, great views of skyline","seating_no":"Yes- 6 benches, with a capacity of 74 persons, 4 tables.","food_service":"No","art":"No","restrooms":"Yes","accessibility":"Indirect","location":"Accessible through elevator (check-in at front desk), located at the rooftop.","year":"2015","source":null,"food":null,"seating":"Y","description":"Rooftop sun and view terrace, with 360 degree views of the city; with limited seating benches.","seating_and_tables":null,"hours_type":"Open Business Hours","subject_to_downtown_pln":"Yes","signage":"Yes","amenities":null,"block_num":"3704","lot_num":"015","parcel_num":"3704015","restroom":true,"indoor":null,"special_amenities":null,"map_id":null,"latitude":"37.78219483","longitude":"-122.407839"}},
{"type":"Feature","geometry":{"type":"Point","coordinates":[-122.395367,37.789785]},"properties":{":id":"row-r3yu.y7zc.sn97",":version":"rv-gctu_pr82-spy4",":created_at":"2026-05-01T11:02:43.383Z",":updated_at":"2026-05-01T11:02:43.383Z","name":"181 Fremont","popos_address":"181 Fremont","hours":"8AM-6PM M-F","type":"Indoor Park","landscaping":"2 trees along wall, interesting paving","seating_no":"~20 movable seats around 6 tables. Some are high stools and tables, some are lounge seats around coffee tables.","food_service":"Andytown Coffee","art":"Sculpture outside.","restrooms":"Yes","accessibility":"Through lobby to 7th floor of building or from Salesforce Park.","location":null,"year":"2015","source":null,"food":"Y","seating":"Y","description":null,"seating_and_tables":null,"hours_type":null,"subject_to_downtown_pln":"Yes","signage":"Yes. Code compliant signs on street, in elevator, in space.","amenities":null,"block_num":"3719","lot_num":"450","parcel_num":"3719450","restroom":true,"indoor":true,"special_amenities":null,"map_id":null,"latitude":"37.789785","longitude":"-122.395367"}},
{"type":"Feature","geometry":{"type":"Point","coordinates":[-122.40337084,37.7911099]},"properties":{":id":"row-xcyu.p3s8.zrtv",":version":"rv-9wvg.siv5~jjz7",":created_at":"2026-05-01T11:02:43.383Z",":updated_at":"2026-05-01T11:02:43.383Z","name":"350 Bush St","popos_address":"350 Bush St","hours":"7AM-6PM, M-F","type":"Indoor park, snippet, view terrace","landscaping":"Yes - planters","seating_no":"Indoor seating and outdoors tables and chairs","food_service":"No","art":null,"restrooms":"Yes","accessibility":"Direct","location":"Two snippets and indoor park","year":"2019","source":null,"food":null,"seating":"Y","description":"Indoor park at 350 Bush. Snippets at 465 Pine. View Terrace (St Mary's Sq) at 500 Pine.","seating_and_tables":"Y","hours_type":"Open Business Hours","subject_to_downtown_pln":"Yes","signage":"Yes at 350 Bush and 465 Pine, none at 500 Pine.","amenities":null,"block_num":"0269","lot_num":"028","parcel_num":"0269028","restroom":true,"indoor":true,"special_amenities":null,"map_id":null,"latitude":"37.7911099","longitude":"-122.40337084"}},
{"type":"Feature","geometry":{"type":"Point","coordinates":[-122.40340574,37.79159219]},"properties":{":id":"row-3mhd_2b6u~ngix",":version":"rv-vnpu_hwif_8ji8",":created_at":"2026-05-01T11:02:43.383Z",":updated_at":"2026-05-01T11:02:43.383Z","name":"350 Bush St","popos_address":"350 Bush St","hours":"7AM-6PM, M-F","type":"Indoor park, snippet, view terrace","landscaping":"Yes - planters","seating_no":"Indoor seating and outdoors tables and chairs","food_service":"No","art":null,"restrooms":"Yes","accessibility":"Direct","location":"Two snippets and indoor park","year":"2019","source":null,"food":null,"seating":"Y","description":"Indoor park at 350 Bush. Snippets at 465 Pine. View Terrace (St Mary's Sq) at 500 Pine.","seating_and_tables":"Y","hours_type":"Open Business Hours","subject_to_downtown_pln":"Yes","signage":"Yes at 350 Bush and 465 Pine, none at 500 Pine.","amenities":null,"block_num":"0269","lot_num":"028","parcel_num":"0269028","restroom":true,"indoor":true,"special_amenities":null,"map_id":null,"latitude":"37.79159219","longitude":"-122.40340574"}},
{"type":"Feature","geometry":{"type":"Point","coordinates":[-122.40454244,37.79183314]},"properties":{":id":"row-7irz-4ifb_axw7",":version":"rv-hcwp-323k_f86v",":created_at":"2026-05-01T11:02:43.383Z",":updated_at":"2026-05-01T11:02:43.383Z","name":"350 Bush St","popos_address":"350 Bush St","hours":"7AM-6PM, M-F","type":"Indoor park, snippet, view terrace","landscaping":"Yes - planters","seating_no":"Indoor seating and outdoors tables and chairs","food_service":"No","art":null,"restrooms":"Yes","accessibility":"Direct","location":"Two snippets and indoor park","year":"2019","source":null,"food":null,"seating":"Y","description":"Indoor park at 350 Bush. Snippets at 465 Pine. View Terrace (St Mary's Sq) at 500 Pine.","seating_and_tables":"Y","hours_type":"Open Business Hours","subject_to_downtown_pln":"Yes","signage":"Yes at 350 Bush and 465 Pine, none at 500 Pine.","amenities":null,"block_num":"0269","lot_num":"028","parcel_num":"0269028","restroom":true,"indoor":true,"special_amenities":null,"map_id":null,"latitude":"37.79183314","longitude":"-122.40454244"}}
] }
