{ "type": "FeatureCollection", "features": [
    {"type":"Feature","geometry":{"type":"Point","coordinates":[-122.40485799999999,37.79310900000007]},"properties":{"name":"600 California","artistlink":"http://en.wikipedia.org/wiki/Bruce_Beasley_(American_sculptor)","location":"top of the stairs of the California St. open space","accessibil":"open space and artwork are always accessible","medium":"bronze","requiredar":"Yes, by Case No <a target='_blank' href='http://propertymap.sfplanning.org?search=1986.085X'>1986.085X</a>","title":"'\"Guardian\"' by Bruce Beasley","type":"Sculpture","descriptio":"The proposed project would develop the building by adding approximately 221,430 gross square feet to the office space, 11 stories, and 22,200 square feet to the parking garage."}},
    {"type":"Feature","geometry":{"type":"Point","coordinates":[-122.40732999999994,37.78056000000004]},"properties":{"name":"474 Natoma","artistlink":null,"location":"elevator tower facing Natoma Street","accessibil":"artwork is always accessible","medium":"\"Optical tiles\":  digital images on metal","requiredar":"Yes, by case No. <a target='_blank' href='http://propertymap.sfplanning.org?search=2007.1383X'>2007.1383X</a>","title":"\"Global Garden\"","type":"façade mural panel","descriptio":"A 100% affordable, 60-unit residential project."}},
    {"type":"Feature","geometry":{"type":"Point","coordinates":[-122.40157199999999,37.79361600000004]},"properties":{"name":"343 Sansome","artistlink":"http://en.wikipedia.org/wiki/Joan_Brown","location":"roof garden","accessibil":"artwork and open space are accessible from 9-5","medium":"tile","requiredar":"Yes, by Case No <a target='_blank' href='http://propertymap.sfplanning.org?search=1985.079X'>1985.079X</a>","title":"'\"Four Seasons\"' by Joan Brown","type":"obelisk","descriptio":"343 Sansome Street would concentrate both on the renovation of the existing 13- story office building, and the separation of one lot into two, 29- story office/ retail buildings with parking. The new building would be approximately 212 feet tall with app"}},{"type":"Feature","geometry":{"type":"Point","coordinates":[-122.42038799999995,37.775559000000044]},"properties":{"name":"125 Mason","artistlink":"http://www.moellerfineart.com/artists/mildred-howard/","location":"facade of building","accessibil":"artwork is always accessible","medium":"various","requiredar":"Yes, by Case No <a target='_blank' href='http://propertymap.sfplanning.org?search=2006.0691X'>2006.0691X</a>","title":"'Untitled' by Mildred Howard","type":"Facade","descriptio":"The proposed project would demolish the existing parking lots on the Project Site and construct a fourteen story, 81 unit affordable family housing building including approximately 556 gsf of office space and 2,111 gsf of lounge and community meeting spa"}},{"type":"Feature","geometry":{"type":"Point","coordinates":[-122.39845741999994,37.786328393000076]},"properties":{"name":"222 2nd Street","artistlink":"https://www.sfmoma.org/artist/Frank_Stella","location":"building lobby","accessibil":"artwork is accessible during normal business hours, when POPOS is open, 8-6.","medium":"pixel painting on canvas","requiredar":"Yes, by Case No. 2006.1106X","title":"\"Riallaro,\" by Frank Stella","type":"painting","descriptio":"New 26-story, 350-foot tall building containing approximately 430,650 gross square feet of office space, approximately 5,000 square feet of ground floor retail space, approximately 28,000 square feet of subterranean parking area, and approximately 8,600"}},{"type":"Feature","geometry":{"type":"Point","coordinates":[-122.39749999999998,37.789600000000064]},"properties":{"name":"100 1st St","artistlink":"http://www.luebtow.com/","location":"sun terrace","accessibil":"artwork is always accessible.","medium":"granite, glass","requiredar":"Yes by Case No 1983.331. Although this project preceded the adoption of the Downtown Plan, this project's approvals were guided by the spitit of the pending plan, resulting in public art at this site.","title":"'\"Linear Fountain\"' by John Luebtow","type":"water wall sculpture","descriptio":"The proposed project was to demolish 6, 40-year-old buildings, and erect a 27 story office building in its place. The new building would be 350 feet tall, and have 396,313 square feet of office space. In addition to the office space, there was planned to"}},{"type":"Feature","geometry":{"type":"Point","coordinates":[-122.39907999999997,37.789000000000044]},"properties":{"name":"560 Mission","artistlink":"http://en.wikipedia.org/wiki/George_Rickey","location":"urban garden","accessibil":"open space and artwork are always accessible","medium":"aluminum","requiredar":"Yes, by Case No <a target='_blank' href='http://propertymap.sfplanning.org?search=1998.321X'>1998.321X</a>","title":"'\"Annular Eclipse\"' by George Rickey","type":"Sculpture","descriptio":"The proposed project would demolish a 65,000 square foot building and parking lot to reconstruct an office building with 645,000 square feet for office space."}},{"type":"Feature","geometry":{"type":"Point","coordinates":[-122.39936599999999,37.79000000000008]},"properties":{"name":"49 Stevenson St","artistlink":"http://en.wikipedia.org/wiki/Manuel_Neri","location":"49 Stevenson entrance","accessibil":"open space and artwork is always accessible","medium":"ordinario marble","requiredar":"Yes by Case No <a target='_blank' href='http://propertymap.sfplanning.org?search=1985.657'>985.657</a>","title":"'\"Escalieta I\"' by Manuel Neri","type":"sculpture","descriptio":"The existing buildings (49, 53, and 55 Stevenson Street) would be demolished and replaced with a 15- story office building. 49 Stevenson would be 253 feet tall with about 169,600 gross square feet of office space. The ground and second floor of the new b"}},{"type":"Feature","geometry":{"type":"Point","coordinates":[-122.39423299999999,37.793371000000036]},"properties":{"name":"1 Market","artistlink":"http://www.marklere.com/","location":"landmark office building interior open space","accessibil":"artwork is available from 7:00 a.m. to 6:30 p.m.","medium":"metal, bronze","requiredar":"Yes, by Case No <a target='_blank' href='http://propertymap.sfplanning.org?search=1998.135X'>1998.135X</a>","title":"'\"Float\"' by Mark Lere","type":"Sculpture","descriptio":"The proposed project would add 51,822 square feet of office space to an existing office building. This addition would include seismically upgrading two, multi-story, light courts of the existing building."}},{"type":"Feature","geometry":{"type":"Point","coordinates":[-122.39619999999996,37.78815000000003]},"properties":{"name":"505-525 Howard","artistlink":"http://houseago.stormking.org/","location":"building lobby","accessibil":"Artwork is accessible during normal business hours, 8:00 a.m. to 7:00 p.m.; artwork is visible from Howard Street","medium":"cast bronze with white patina finish","requiredar":"Yes, by <a target='_blank' href='http://propertymap.sfplanning.org?search=2008.0001X'>2008.0001X</a>","title":"\"Boy III\"","type":"sculptures","descriptio":"In 2000 and 2001, the Planning Commission granted approvals for the Foundry Square project. The project included the development of four office buildings at each corner at the intersection of First and Howard Streets, with approximately 1,150,000 square"}},{"type":"Feature","geometry":{"type":"Point","coordinates":[-122.415956,37.775862000000075]},"properties":{"name":"66 9th","artistlink":"http://www.ball-nogues.com/","location":"10th and Mission stair tower","accessibil":"visible from street right-of-way","medium":"acrylic beads","requiredar":"Yes, by Case No <a target='_blank' href='http://propertymap.sfplanning.org?search=2005.1127X'>2005.1127X<a>","title":"'\"Linking Hand Veil\"' by Ball-Nogues Studio","type":"mural","descriptio":"The proposed project would construct a new, 11-story senior housing building containing approximately 107 dwelling units, 93,954 gross square feet, 10 off-street parking spaces, and ground & second floor ancillary space for community use."}},{"type":"Feature","geometry":{"type":"Point","coordinates":[-122.39864099999994,37.78844600000008]},"properties":{"name":"555 Mission","artistlink":"http://en.wikipedia.org/wiki/Ugo_Rondinone","location":"plaza","accessibil":"open space and artwork are always accessible","medium":"aluminum","requiredar":"Yes, by Case No<a target='_blank' href='http://propertymap.sfplanning.org?search= 2001.798X'>2001.798X</a>","title":"'\"Moonrise Sculptures: March, October and December\"' by Ugo Rondinone","type":"Sculpture","descriptio":"The proposed project would demolish the existing buildings on the site and construct a 33-story, approximately 481.5 foot tall building with 549,000 gross square feet (gsf) of office space, approximately 4,000 gsf of ground story retail space, at least 1"}},{"type":"Feature","geometry":{"type":"Point","coordinates":[-122.39834142199999,37.786295676000066]},"properties":{"name":"222 2nd Street","artistlink":"https://www.sfmoma.org/artist/Frank_Stella","location":"building lobby","accessibil":"artwork is accessible during normal business hours, when POPOS is open, 8-6.","medium":"mixed media on honeycomb aluminum","requiredar":"Yes, by Case No. 2006.1106X","title":"\"Shards,\" by Frank Stella","type":"painting","descriptio":"New 26-story, 350-foot tall building containing approximately 430,650 gross square feet of office space, approximately 5,000 square feet of ground floor retail space, approximately 28,000 square feet of subterranean parking area, and approximately 8,600"}},{"type":"Feature","geometry":{"type":"Point","coordinates":[-122.39655899999997,37.78609300000005]},"properties":{"name":"SF Dtwn Courtyard by Marriott","artistlink":"http://www.tdelaney.com/","location":"courtyard","accessibil":"accessible 8:00 a.m. to 6:00 p.m.","medium":"bronze","requiredar":"Yes, by Case No <a target='_blank' href='http://propertymap.sfplanning.org?search=1997.689X'>1997.689X</a>","title":"'\"Globe\"' by Topher Delaney","type":"Sculpture","descriptio":"The proposed project would include the construction of 17-story, 414 room hotel with120 parking spaces."}},{"type":"Feature","geometry":{"type":"Point","coordinates":[-122.40092199999998,37.791000000000054]},"properties":{"name":"1 Sansome Street","artistlink":"https://en.wikipedia.org/wiki/Alexander_Stirling_Calder","location":"North side of indoor, groundfloor open air atrium plaza","accessibil":"open space and artwork are accessible business hours","medium":"bronze casting","requiredar":"Although this project preceded the adoption of the Downtown Plan, this project's approvals were guided by the spirit of the pending plan, resulting in public art at this site.","title":"\"Star Maiden\" by Stirling Calder","type":"Sculpture","descriptio":null}},{"type":"Feature","geometry":{"type":"Point","coordinates":[-122.40485799999999,37.79310900000007]},"properties":{"name":"600 California","artistlink":"http://kentroberts.com/","location":"in stairway of California St. open space","accessibil":"open space and artwork are always accessible","medium":"steel, concrete, brass","requiredar":"Yes, by Case No <a target='_blank' href='http://propertymap.sfplanning.org?search=1986.085X'>1986.085X</a>","title":"\"Three Bridges\"' by Kent Roberts","type":"sculpture","descriptio":"The proposed project would develop the building by adding approximately 221,430 gross square feet to the office space, 11 stories, and 22,200 square feet to the parking garage."}},{"type":"Feature","geometry":{"type":"Point","coordinates":[-122.40522599999997,37.79086900000004]},"properties":{"name":"235 Pine","artistlink":"http://www.tmarshsculptor.com/index.htm","location":"above office building entrance","accessibil":"artwork is always accessible","medium":"bronze","requiredar":"Yes, by Case No <a target='_blank' href='http://propertymap.sfplanning.org?search=1984.432X'>1984.432X</a>","title":"'\"Called to Rise\"' by Thomas Marsh, Qiliu Pan","type":"Relief","descriptio":"The proposed project would include the construction of a 325 foot tall office building with 27 stories. 235 Pine would contain approximately 147,500 square feet of office space, 5,000 square feet of retail space, 10,500 square feet of parking, and 3,540"}},{"type":"Feature","geometry":{"type":"Point","coordinates":[-122.396616,37.791000000000054]},"properties":{"name":"350 Mission St","artistlink":"http://www.refikanadol.com/","location":"Within the POPOS","accessibil":"open space and artwork are accessible M-F, 8am-5pm","medium":"6mm LED Media Wall","requiredar":"Yes, by 2006.1524","title":"\"Virtual Depiction: San Francisco\" by Refik Anadol","type":"digital canvas","descriptio":null}},{"type":"Feature","geometry":{"type":"Point","coordinates":[-122.400781,37.79400000000004]},"properties":{"name":"275 Battery Street","artistlink":"http://www.stephendestaebler.com/","location":"Side of building, midblock, along Sacramento Street","accessibil":"artwork is always accessible","medium":"bronze","requiredar":"Although this project preceded the adoption of the Downtown Plan, this project's approvals were guided by the spirit of the pending plan, resulting in public art at this site.","title":"\"Torso with arm raised\" by Stephen de Staebler\"","type":"Sculpture","descriptio":null}},{"type":"Feature","geometry":{"type":"Point","coordinates":[-122.39699999999999,37.78623200000004]},"properties":{"name":"235 2nd St","artistlink":"http://en.wikipedia.org/wiki/Anish_Kapoor","location":"lobby/ indoor park","accessibil":"open space and artwork are accessible from 8 a.m. to 6 p.m.","medium":"stainless steel","requiredar":"Yes, by Case No <a target='_blank' href='http://propertymap.sfplanning.org?search=1999.176B'>1999.176B</a>","title":"'\"Making the World Many\"' by Anish Kapoor","type":"Sculpture","descriptio":"The proposed project would add 3 floors to a 4-story warehouse, which would become an office building. It would also erect a new, 7-story building with approximately 232, 789 square feet of office space, and 1,000 square feet of retail space.The two buil"}},{"type":"Feature","geometry":{"type":"Point","coordinates":[-122.40053699999999,37.79455400000006]},"properties":{"name":"325 Battery St","artistlink":"http://en.wikipedia.org/wiki/Fritz_Koenig","location":"spiral staircase on Commercial St.","accessibil":"artwork and open space are always accessible","medium":"bronze","requiredar":"Although this project preceded the adoption of the Downtown Plan, this project's approvals were guided by the spirit of the pending plan, resulting in public art at this site.","title":"'\"Untitled\"' by Fritz Koenig","type":"sculpture","descriptio":null}},{"type":"Feature","geometry":{"type":"Point","coordinates":[-122.39864099999994,37.78844600000008]},"properties":{"name":"555 Mission","artistlink":"http://en.wikipedia.org/wiki/Jonathan_Borofsky","location":"plaza","accessibil":"open space and artwork are always accessible","medium":"steel","requiredar":"Yes, by Case No <a target='_blank' href='http://propertymap.sfplanning.org?search=2001.798X'>2001.798X</a>","title":"'\"Human Sculptures\"' by Jonathan Borofsky","type":"sculpture","descriptio":"The proposed project would demolish the existing buildings on the site and construct a 33-story, approximately 481.5 foot tall building with 549,000 gross square feet (gsf) of office space, approximately 4,000 gsf of ground story retail space, at least 1"}},{"type":"Feature","geometry":{"type":"Point","coordinates":[-122.40399999999994,37.787600000000054]},"properties":{"name":"720 Market","artistlink":"http://en.wikipedia.org/wiki/Stephen_De_Staebler","location":"building facade","accessibil":"artwork is always accessible.","medium":"Bronze","requiredar":"yes, by 1986.21ex","title":"'\"Angel\"' by Stephen de Staebler","type":"Sculpture","descriptio":"The construction of a ten story building containing approximately 49,963 gross square feet, which includes 8,092 gsf of retails space and 41,871 gsf of office space."}},{"type":"Feature","geometry":{"type":"Point","coordinates":[-122.40976599999999,37.784748000000036]},"properties":{"name":"157 Mason","artistlink":"http://www.johannapoethig.com/splashpage_ie.html","location":"facade of the building","accessibil":"artwork is always accessible","medium":"ceramic tile","requiredar":"Yes, by Case No <a target='_blank' href='http://propertymap.sfplanning.org?search=2006.0413X'>2006.0413X</a>","title":"'\"Intertwined\"' by Johanna Poethig","type":"Tile mosaic","descriptio":"The proposed project would demolish the existing parking lots on the project site and construct an 8-story homeless housing building including supportive and administrative services with approximately 37,790 gsf of developed space, 56 rental studio apart"}},{"type":"Feature","geometry":{"type":"Point","coordinates":[-122.41751,37.77630000000005]},"properties":{"name":"1411 Market","artistlink":"http://www.tdelaney.com","location":"north façade, at 10th and Market","accessibil":"artwork is always accessible","medium":"granite rocks, landscaping, etchings","requiredar":"Yes, by case No. <a target='_blank' href='http://propertymap.sfplanning.org?search=2006.0584X'>2006.0584X</a>","title":"\"10th & Market Public Art Plaza\"","type":"plaza/ sculptured landscape","descriptio":"754 dwelling units and approximately 19,000 square feet of commercial space. The project contains two towers sharing a common base on a project site that spans the west side of 10th Street from Market Street to Jessie Street. The north tower, located at"}},{"type":"Feature","geometry":{"type":"Point","coordinates":[-122.415956,37.775862000000075]},"properties":{"name":"66 9th","artistlink":"http://www.ball-nogues.com/","location":"lobby","accessibil":"visible from street","medium":"acrylic","requiredar":"Yes, by Case No<a target='_blank' href='http://propertymap.sfplanning.org?search= 2005.1127X'>2005.1127X</a>","title":"'\"Linking Hand Cloud\"' by Ball-Nogues Studio","type":"Mural","descriptio":"The proposed project would construct a new, 11-story senior housing building containing approximately 107 dwelling units, 93,954 gross square feet, 10 off-street parking spaces, and ground & second floor ancillary space for community use."}},{"type":"Feature","geometry":{"type":"Point","coordinates":[-122.40019999999998,37.793900000000065]},"properties":{"name":"275 Battery St","artistlink":"http://en.wikipedia.org/wiki/Bill_Barrett_(artist)","location":"Embarcadero West lobby","accessibil":"artwork is always accessible.","medium":"bronze","requiredar":"Although this project preceded the adoption of the Downtown Plan, this project's approvals were guided by the spirit of the pending plan, resulting in public art at this site.","title":"'\"Baile Merengue\"' by Bill Barrett","type":"sculpture","descriptio":null}},{"type":"Feature","geometry":{"type":"Point","coordinates":[-122.40485799999999,37.79310900000007]},"properties":{"name":"600 California","artistlink":"http://www.bellafeldman.com/gallery/wtr/index.html","location":"inside of Bank lobby","accessibil":"artwork is available from 7:00 a.m. to 7:00 p.m.","medium":"stainless steel, water","requiredar":"Yes, by Case No <a target='_blank' href='http://propertymap.sfplanning.org?search=1986.085X'>1986.085X</a>","title":"'\"Untitled\"' by Bella Feldman","type":"fountain sculpture","descriptio":"The proposed project would develop the building by adding approximately 221,430 gross square feet to the office space, 11 stories, and 22,200 square feet to the parking garage."}},{"type":"Feature","geometry":{"type":"Point","coordinates":[-122.39899999999994,37.79350000000005]},"properties":{"name":"200 California","artistlink":"http://www.murrillsculpture.com/","location":"Public right-of-way","accessibil":"open space and artwork is always accessible","medium":"Bronze","requiredar":"yes, by <a target='_blank' href='http://propertymap.sfplanning.org?search=1986.223'>1986.223</a>","title":"'\"Hawaiian\"' by Gwynn Murill","type":"Sculpture","descriptio":"The proposed project would demolish the existing 3-story, mixed-use office/ retail structure, and contruct a 26,983 gross square foot office building. The building would be 6 stories and 74 feet tall, adding approximately 17,594 square feet of office spa"}},{"type":"Feature","geometry":{"type":"Point","coordinates":[-122.39839999999998,37.793600000000026]},"properties":{"name":"150 California","artistlink":"http://en.wikipedia.org/wiki/Ed_Carpenter_(artist)","location":"rooftop terrace of the sixth floor","accessibil":"artwork available from 9:00 a.m to 6:00 p.m.","medium":"aluminum pipe, stainless steel cables and hardware, aluminum channel, dichroic glass","requiredar":"yes, by motion # 14624","title":"'\"Arbor Arch\"' by Ed Carpenter","type":"Sculpture","descriptio":"The construction would include a 330 foot office building containing approximately 195,500 square feet of office space, 3,265 square feet of retail space, 9,029 square feet of parking space, and 4,150 square feet of open space."}},{"type":"Feature","geometry":{"type":"Point","coordinates":[-122.39319999999998,37.79170000000005]},"properties":{"name":"160 Spear St","artistlink":"http://rogerberry.info/","location":"open space in front of building","accessibil":"artwork is always accessible","medium":"steel","requiredar":"Although this project preceded the adoption of the Downtown Plan, this project's approvals were guided by the spirit of the pending plan, resulting in public art at this site.","title":"'\"Tau\"' by Roger Berry","type":"sculpture","descriptio":"no information available"}},{"type":"Feature","geometry":{"type":"Point","coordinates":[-122.39667699999995,37.78849700000006]},"properties":{"name":"500 Howard","artistlink":"http://en.wikipedia.org/wiki/Richard_Deacon_(sculptor)","location":"under arcade of the plaza (Foundry Square)","accessibil":"open space and artwork are always accessible","medium":"aluminum tread plate","requiredar":"Yes, by Case No <a target='_blank' href='http://propertymap.sfplanning.org?search=1998.902X'>1998.902X</a>","title":"'\"Not Out of the Woods Yet\"' by Richard Deacon","type":"Sculpture","descriptio":"The construction of Foundry Square includes four buildings on the corners of 1st and Howard streets. The proposed four buildings would all be 10-story, low-rise structures together containing 1,149,000 square feet of new office space. All of the projects"}},{"type":"Feature","geometry":{"type":"Point","coordinates":[-122.39909899999998,37.78660600000006]},"properties":{"name":"199 New Montgomery","artistlink":"http://en.wikipedia.org/wiki/Albert_Paley","location":"in front of lobby entrance","accessibil":"artwork is always accessible","medium":"steel","requiredar":"Yes, by Case No <a target='_blank' href='http://propertymap.sfplanning.org?search=2001.0669X'>2001.0669X</a>","title":"'\"Volute\"' by Albert Paley","type":"Sculpture","descriptio":"The proposed project would construct a 150 foot tall building containing ground-level retail and approximately 168 residential units."}},{"type":"Feature","geometry":{"type":"Point","coordinates":[-122.39499999999998,37.789796000000024]},"properties":{"name":"199 Fremont St","artistlink":"http://www.paulkos.net/","location":"center of sun terrace","accessibil":"artwork is always accessible.","medium":"granite","requiredar":"Although this project preceded the adoption of the Downtown Plan, this project's approvals were guided by the spirit of the pending plan, resulting in public art at this site.","title":"'\"Big Bertha\"' by Paul Kos","type":"Sierra Granite Boulder","descriptio":"no information available."}},{"type":"Feature","geometry":{"type":"Point","coordinates":[-122.40411499999999,37.79200000000003]},"properties":{"name":"555 California Street","artistlink":"http://www.nagaremasayuki.com/","location":"Located at the west side of elevated plaza","accessibil":"artwork is always accessible","medium":"black granite","requiredar":"Although this project preceded the adoption of the Downtown Plan, this project's approvals were guided by the spirit of the pending plan, resulting in public art at this site.","title":"\"Transcendence\" by Masayuki Nagare","type":"Sculpture","descriptio":null}},{"type":"Feature","geometry":{"type":"Point","coordinates":[-122.39887599999997,37.78576900000007]},"properties":{"name":"1 Hawthorne","artistlink":"http://en.wikipedia.org/wiki/Robert_H._Hudson","location":"fa ade of building","accessibil":"artwork is always accessible","medium":"porcelain enamel, steel","requiredar":"Yes, by Case No <a target='_blank' href='http://propertymap.sfplanning.org?search=2004.0852X'>2004.0852X</a>","title":"'\"Landmark\"' by Robert Hudson","type":"Mural","descriptio":"The proposed project would construct a 240- foot, 24-story tall residential building, containing up to 189 dwelling units."}},{"type":"Feature","geometry":{"type":"Point","coordinates":[-122.415956,37.775862000000075]},"properties":{"name":"77 Van Ness","artistlink":"http://www.pdgarts.com/","location":"lobby","accessibil":"building manager may ask why you are there. Artwork is accessible from 9:00 a.m. to 5:00 p.m. Photos aren't recommended.","medium":"patina bronze, stone","requiredar":"Yes, by Case No <a target='_blank' href='http://propertymap.sfplanning.org?search=2000.074X'>2000.074X</a>","title":"'\"New Life\"' by Paul D. Gibson","type":"Sculpture","descriptio":"The proposed project would construct an 8-story, approximately 90-foot tall building containing 50 dwelling units on floors four through eight, approximately 1,350 square feet of ground floor commercial space, amd approximately 625 square feet of public"}},{"type":"Feature","geometry":{"type":"Point","coordinates":[-122.41459999999995,37.77589000000006]},"properties":{"name":"1321 Mission","artistlink":"http://www.kenkalman.com","location":"south-facing exterior wall, visible from 9th Street","accessibil":"artwork is always accessible","medium":"aluminium","requiredar":"Yes, by case No. <a target='_blank' href='http://propertymap.sfplanning.org?search=2011.0312'X>2011.0312X</a>","title":"\"Urban Currents\"","type":"movable wall sculpture","descriptio":"11-story, 120-foot-tall mixed use project at 1321 Mission, which is located on the corner of Mission and 9th Streets in the South of Market neighborhood. The project includes 78,040 total square feet of space, comprised of approximately 3,359 square feet"}},{"type":"Feature","geometry":{"type":"Point","coordinates":[-122.40765999999996,37.78207000000003]},"properties":{"name":"942 Mission","artistlink":"http://www.kps-photo.com","location":"hotel lobby","accessibil":"artwork is always accessible","medium":"mosaic tiles","requiredar":"Yes, by case No. <a target='_blank' href='http://propertymap.sfplanning.org?search=2008.0197X'>2008.0197X</a>","title":null,"type":"mural","descriptio":"15-story, 152-foot-tall hotel project. The project includes 79,265 total square feet of space, including approximately 72,000 square feet of hotel use for 174 rooms, and approximately 3,240 square feet of retail space."}},{"type":"Feature","geometry":{"type":"Point","coordinates":[-122.40687999999994,37.787243000000046]},"properties":{"name":"Orchard Garden Hotel","artistlink":"http://www.archieheld.com/","location":"lobby, fa ade","accessibil":"artwork is always accessible","medium":"bronze, glass","requiredar":"Yes, by Case No <a target='_blank' href='http://propertymap.sfplanning.org?search=2000.171X'>2000.171X</a>","title":"'Untitled' by Archie Held","type":"Fountain sculpture","descriptio":"The proposed project would include the construction of a 10- story, approximately 99 foot tall tourist hotel. The hotel would be located on the north side of Bush street, and would contain 86 rooms."}},{"type":"Feature","geometry":{"type":"Point","coordinates":[-122.40094999999997,37.79450000000003]},"properties":{"name":"325 Battery St","artistlink":"http://www.rogallery.com/Hadzi_Dimitri/hadzi-biography.html","location":"Commercial St.","accessibil":"artwork and open space are always accessible","medium":"bronze","requiredar":"Although this project preceded the adoption of the Downtown Plan, this project's approvals were guided by the spirit of the pending plan, resulting in public art at this site.","title":"'\"Creazione\"' by Dimitri Hadzi","type":"sculpture","descriptio":null}},{"type":"Feature","geometry":{"type":"Point","coordinates":[-122.40485799999999,37.79310900000007]},"properties":{"name":"600 California","artistlink":"http://en.wikipedia.org/wiki/Lee_Lawrie","location":"outside of Sacramento St. entrance","accessibil":"open space and artwork are always accessible","medium":"bronze","requiredar":"Yes, by Case No <a target='_blank' href='http://propertymap.sfplanning.org?search=1986.085X''>1986.085X></a>","title":"'\"Elevator Doors\"' by Lee Lawrie","type":"ArtDeco Elevator doors","descriptio":"The proposed project would develop the building by adding approximately 221,430 gross square feet to the office space, 11 stories, and 22,200 square feet to the parking garage."}},{"type":"Feature","geometry":{"type":"Point","coordinates":[-122.40039999999999,37.78870000000006]},"properties":{"name":"55 2nd St","artistlink":"http://www.joegoodestudio.com/","location":"solarium","accessibil":"open space and artwork are accessible from 8 a.m. to 6 p.m.","medium":"oil on canvas","requiredar":"yes, by <a target='_blank' href='http://propertymap.sfplanning.org?search=1997.215B'>1997.215B</a>","title":"'\"Waterfall Series\"' by Joe Goode","type":"painting","descriptio":"The proposed project would construct a 25-story, 33 foot tall mixed use building, containing approximately 283,301 square feet of office and retail space, 109 parking spaces, and 8,492 square feet of public open space."}},{"type":"Feature","geometry":{"type":"Point","coordinates":[-122.39823999999999,37.78888000000006]},"properties":{"name":"535 Mission","artistlink":"http://www.gordonhuether.com/","location":"lobby wall, visible from street (Shaw Alley)","accessibil":"Artwork is accessible from 8am - 6pm (M-F); it is visible from Shaw Alley","medium":"glass mounted to stone backing","requiredar":"Yes, by case No. <a target='_blank' href='http://propertymap.sfplanning.org?search=2006.1273X'>2006.1273X</a>","title":"\"Applique da Parete\"","type":"wall art","descriptio":"27-story office building with approximately 3,700 square feet of ground-floor retail space, as well as publiclyaccessible open space adjacent to Shaw Alley."}},{"type":"Feature","geometry":{"type":"Point","coordinates":[-122.40124799999995,37.79419800000005]},"properties":{"name":"400 Sansome","artistlink":"http://en.wikipedia.org/wiki/Arman","location":"Front steps at sidewalk along Sansome Street","accessibil":"artwork is always accessible","medium":"bronze","requiredar":"Although this project preceded the adoption of the Downtown Plan, this project's approvals were guided by the spirit of the pending plan, resulting in public art at this site.","title":"\"Hermes and Dionysus - Monument to Analysis\" by Arman","type":"Sculpture","descriptio":null}},{"type":"Feature","geometry":{"type":"Point","coordinates":[-122.39914399999998,37.788080000000036]},"properties":{"name":"101 2nd St","artistlink":"http://www.larrybell.com/","location":"indoor park","accessibil":"artwork is available from 8 am - 6 pm","medium":"bronze","requiredar":"Yes, by Case No <a target='_blank' href='http://propertymap.sfplanning.org?search=1997.484X'>1997.484X</a>","title":"'\"Sumer #24\"' by Larry Bell","type":"Sculpture","descriptio":"The proposed project would alter the existing building to incorporate 152,000 square feet of office space and 13,400 square feet of institutional space."}},{"type":"Feature","geometry":{"type":"Point","coordinates":[-122.41649999999999,37.77557000000007]},"properties":{"name":"1400 Mission","artistlink":null,"location":"corner façade at 10th and Jessie St","accessibil":"artwork is always accessible","medium":"wall painting (acrylic paint) installed to outside façade","requiredar":"Yes, by case No. <a target='_blank' href='http://propertymap.sfplanning.org?search=2011.1043X'>2011.1043X</a>","title":"\"Wall Drawing #1012: Isometric Form, 202\"","type":"mural","descriptio":"15-story, 150-foot-tall mixed use project at\n1400 Mission, which is located on the northeast corner of Mission and 10th Streets in the South of Market\nneighborhood. The project includes 241,745 total square feet of space, including approximately 203,733"}},{"type":"Feature","geometry":{"type":"Point","coordinates":[-122.39588099999997,37.78911900000003]},"properties":{"name":"400 Howard","artistlink":"http://www.richarddeutsch.com/","location":"plaza in front of Foundry Square III","accessibil":"open space and artwork are always accessible","medium":"stainless Steel","requiredar":"Yes, by Case No <a target='_blank' href='http://propertymap.sfplanning.org?search=1998.902X'>1998.902X</a>","title":"'\"The Signature\"' by Richard Deutsch","type":"Sculpture","descriptio":"The construction of Foundry Square would include four buildings on the corners of 1st and Howard streets. The proposed four buildings would all be 10-story, low-rise structures together containing 1,149,000 square feet of new office space. All of the pro"}},{"type":"Feature","geometry":{"type":"Point","coordinates":[-122.39429899999999,37.789139000000034]},"properties":{"name":"215 Fremont","artistlink":"http://www.gordonhuether.com/","location":"pathway to entrance","accessibil":"artwork is always accessible","medium":"glass","requiredar":"Yes, by Case No <a target='_blank' href='http://propertymap.sfplanning.org?search=1998.497B'>1998.497B</a>","title":"'\"Urban Grit\"' by Gordon Huether","type":"Glass panels","descriptio":"The proposed project would add a 7th floor mezzanine with 23,000 square feet of office space, and 47,950 square feet of net new office space."}},{"type":"Feature","geometry":{"type":"Point","coordinates":[-122.41984999999994,37.77606300000008]},"properties":{"name":"San Francisco Conservatory of Music","artistlink":"http://www.winterich.com/","location":"facade of the addition/ left of the main entrance","accessibil":"artwork is always accessible","medium":"glass","requiredar":"Yes, by Case No <a target='_blank' href='http://propertymap.sfplanning.org?search=2001.0862X'>2001.0862X</a>","title":"'\"Exultadagio\"' by Daniel Winterich","type":"Glass work","descriptio":"The proposed project iwould merge 50 Oak Street and 70 Street to create one, 125,000 gross square foot building. 50 Oak Street would be retrofitted and made into a six story building, and 70 Oak Street would be demolished and reconstructed into a 6 story"}},{"type":"Feature","geometry":{"type":"Point","coordinates":[-122.40399999999994,37.794328000000064]},"properties":{"name":"642 Commercial St","artistlink":"http://www.pepopichler.com/","location":"Empire Park","accessibil":"open space and artwork is accessible during daylight hours","medium":"concrete, granite, stone, cast bronze","requiredar":"Yes by Case No 1982.463. Although this project preceded the adoption of the Downtown Plan, this project's approvals were guided by the spirit of the pending plan, resulting in public art at this site.","title":"'\"Untitled\"' by Pepo Pichler","type":"fountain sculpture","descriptio":"The project would include the construction of a 24-story, 345 foot office building, and the rehabilitation of 2 existing buildings at 641 and 653 Commercial Street. There would be 314,000 square feet of office space, 15,900 square feet of ground floor re"}},{"type":"Feature","geometry":{"type":"Point","coordinates":[-122.40033999999997,37.79431200000005]},"properties":{"name":"325 Battery St","artistlink":"http://en.wikipedia.org/wiki/Arman","location":"Federal Reserve steps Battery St.","accessibil":"artwork is always accessible","medium":"bronze","requiredar":"Although this project preceded the adoption of the Downtown Plan, this project's approvals were guided by the spirit of the pending plan, resulting in public art at this site.","title":"'\"The Universality of Wisdom\"' by Arman","type":"sculpture","descriptio":null}},{"type":"Feature","geometry":{"type":"Point","coordinates":[-122.39768199999997,37.78362600000003]},"properties":{"name":"631 Folsom","artistlink":"http://en.wikipedia.org/wiki/Richard_Deutsch","location":"outside of building entrance","accessibil":"artwork is always accessible","medium":"carrera marble","requiredar":"Yes, by Case No <a target='_blank' href='http://propertymap.sfplanning.org?search=2004.0296X'>2004.0296X</a>","title":"'\"Frammenti\"' by Richard Deutsch","type":"Water sculpture","descriptio":"The proposed project would construct a 21-story, 209-foot-high building containing up to 120 dwelling units and a garage with up to 64 parking spaces."}},{"type":"Feature","geometry":{"type":"Point","coordinates":[-122.39829680699995,37.78633731600007]},"properties":{"name":"222 2nd Street","artistlink":"https://www.sfmoma.org/artist/Frank_Stella","location":"building lobby","accessibil":"artwork is accessible during normal business hours, when POPOS is open, 8-6.","medium":"pixel painting","requiredar":"Yes, by Case No. 2006.1106X","title":"\"The Pequod Meets the Delight,\" by Frank Stella","type":"painting","descriptio":"New 26-story, 350-foot tall building containing approximately 430,650 gross square feet of office space, approximately 5,000 square feet of ground floor retail space, approximately 28,000 square feet of subterranean parking area, and approximately 8,600"}},{"type":"Feature","geometry":{"type":"Point","coordinates":[-122.41263399999997,37.77870400000006]},"properties":{"name":"1160 Mission","artistlink":"http://www.lenehan.com/Artist.asp?ArtistID=16860&Akey=L6DFL793","location":"sides of building","accessibil":"artwork is always accessible","medium":"paint, glass","requiredar":"Yes, by Case No <a target='_blank' href='http://propertymap.sfplanning.org?search=2006.0305X'>2006.0305X</a>","title":"'\"Realm\"' by Dorothy Lenehan","type":"Glass mural","descriptio":"The proposed project would replace a single level parking lot with at 23 story, 497,000 square foot apartment building. This residential space would have 246 living spaces, a 504 space garage, 5,356 square feet of retail space, and would be 280 feet tall"}},{"type":"Feature","geometry":{"type":"Point","coordinates":[-122.40969099999995,37.78497500000003]},"properties":{"name":"235 Geary","artistlink":"http://en.wikipedia.org/wiki/Teresita_Fernandez","location":"Louis Vuitton entrance","accessibil":"artwork is accessible Monday through Saturday from 10:00 a.m. to 7:00 p.m., and Sunday 12:00 p.m. to 6:00 p.m.","medium":"glass, cabochon mirrors","requiredar":"Yes, by Case No <a target='_blank' href='http://propertymap.sfplanning.org?search=1996.228X'>1996.228X</a>","title":"'\"Hothouse (Blue)\"' by Teresita Fernandez","type":"Sculpture","descriptio":"The proposed project would demolish the six-story Allen and Bally buildings, and construct a new 8-story building in their place. The project would also include the replacement of the fa ade of the building to make one, transparent fa ade."}},{"type":"Feature","geometry":{"type":"Point","coordinates":[-122.39626199999998,37.78800000000007]},"properties":{"name":"505-525 Howard","artistlink":"http://houseago.stormking.org/","location":"building lobby","accessibil":"artwork is accessible during normal business hours, 8:00 a.m to 7:00 p.m; artwork is visible from Howard Street","medium":"cast bronze","requiredar":"Yes, by <a target='_blank' href='http://propertymap.sfplanning.org?search=2008.0001X'>2008.0001X</a>","title":"\"Sleeping Boy\"","type":"Sculpture","descriptio":null}},{"type":"Feature","geometry":{"type":"Point","coordinates":[-122.40049999999997,37.795300000000054]},"properties":{"name":"425 Battery St","artistlink":"http://www.tdelaney.com","location":"In public right-of-way in front of 425 Battery","accessibil":"artwork is always accessible","medium":"unearthed ship parts","requiredar":"yes, by Case No <a target='_blank' href='http://propertymap.sfplanning.org?search=2000.613X'>2000.613X</a>","title":"'\"The General Harrison\"' by Curtis Hollenback and Topher Delaney","type":"Unearthed gold rush ship / Sidewalk art","descriptio":"The proposed project would include the demolition of three existing buildings and the construction of a new, 11-story building with 20,255 square feet of ground floor retail, 90,410 square feet of hotel use (max. of 308 rooms) on the 2nd through 8th floo"}},{"type":"Feature","geometry":{"type":"Point","coordinates":[-122.39514399999996,37.78853000000004]},"properties":{"name":"405 Howard","artistlink":"http://en.wikipedia.org/wiki/Joel_Shapiro","location":"plaza in front of Foundry Square II","accessibil":"artwork and open space are always accessible","medium":"bronze","requiredar":"Yes, by Case No <a target='_blank' href='http://propertymap.sfplanning.org?search=1998.902X'>1998.902X</a>","title":"'\"Untitled\"' by Joel Shapiro","type":"Sculpture","descriptio":"The construction of Foundry Square includes four buildings on the corners of 1st and Howard streets. The four buildings would all be 10-story, low-rise structures together containing 1,149,000 square feet of new office space. All of the projects would be"}},{"type":"Feature","geometry":{"type":"Point","coordinates":[-122.41529999999995,37.77690000000007]},"properties":{"name":"55 9th","artistlink":"http://keehnonart.com","location":"front building façade","accessibil":"artwork is always accessible","medium":"glass, steel, wood","requiredar":"Yes, by case No. <a target='_blank' href='http://propertymap.sfplanning.org?search=2006.1248X'>2006.1248X</a>","title":"\"Caruso's Dream\"","type":"sculptures","descriptio":"a mixed-use 18-story, 190-foot tall building with residential uses on floors 2 through 18 and retail uses on the ground level."}},{"type":"Feature","geometry":{"type":"Point","coordinates":[-122.39914399999998,37.788080000000036]},"properties":{"name":"101 2nd St","artistlink":"http://www.charlesarnoldistudio.com/","location":"indoor park","accessibil":"artwork is available from 8 am - 6 pm","medium":"canvas, acrylic","requiredar":"Yes, by Case No <a target='_blank' href='http://propertymap.sfplanning.org?search=1997.484X'>1997.484X</a>","title":"'\"Core\"' by Charles Arnoldi","type":"painting","descriptio":"The proposed project would alter the existing building to incorporate 152,000 square feet of office space and 13,400 square feet of institutional space."}},{"type":"Feature","geometry":{"type":"Point","coordinates":[-122.40157199999999,37.79361600000004]},"properties":{"name":"343 Sansome","artistlink":"http://en.wikipedia.org/wiki/Pol_Bury","location":"Sacramento St. lobby","accessibil":"artwork and open space are accessible from 9-5","medium":"stainless steel, marble","requiredar":"Yes, by Case No <a target='_blank' href='http://propertymap.sfplanning.org?search=1985.079X'>1985.079X</a>","title":"'\"L'Octagon\"' by Pol Bury","type":"Water sculpture","descriptio":"343 Sansome Street would concentrate both on the renovation of the existing 13- story office building, and the separation of one lot into two, 29- story office/ retail buildings with parking. The new building would be approximately 212 feet tall with app"}},{"type":"Feature","geometry":{"type":"Point","coordinates":[-122.39802999999995,37.78872000000007]},"properties":{"name":"535 Mission","artistlink":"http://www.mtnforge.com/","location":"In POPOS, corner of Minna & Shaw","accessibil":"artwork is always accessible","medium":"bronze, copper, steel","requiredar":"Yes, by case No. <a target='_blank' href='http://propertymap.sfplanning.org?search=2006.1273X'>2006.1273X</a>","title":"\"The Band\"","type":"sculpture","descriptio":"27-story office building with approximately 3,700 square feet of ground-floor retail space, as well as publicly accessible open space adjacent to Shaw Alley."}},{"type":"Feature","geometry":{"type":"Point","coordinates":[-122.415956,37.775862000000075]},"properties":{"name":"66 9th","artistlink":"http://www.ball-nogues.com/","location":"10th street between Market and Mission","accessibil":"artwork is always accessible","medium":"acrylic","requiredar":"Yes, by Case No <a target='_blank' href='http://propertymap.sfplanning.org?search=2005.1127X'>2005.1127X<a>","title":"'\"Linking Hand Veil\"' by Ball-Nogues Studio","type":"mural","descriptio":"The proposed project would construct a new, 11-story senior housing building containing approximately 107 dwelling units, 93,954 gross square feet, 10 off-street parking spaces, and ground & second floor ancillary space for community use."}},{"type":"Feature","geometry":{"type":"Point","coordinates":[-122.40056299999998,37.791000000000054]},"properties":{"name":"1 Bush Street","artistlink":null,"location":"In west side of sunken POPOS, along Sansome Street frontage","accessibil":"artwork is always accessible","medium":"bronze","requiredar":"Although this project preceded the adoption of the Downtown Plan, this project's approvals were guided by the spirit of the pending plan, resulting in public art at this site.","title":"Bronze Fountain by David Tolerton","type":"Fountain","descriptio":null}}], "crs" : { "type": "name", "properties": { "name": "urn:ogc:def:crs:OGC:1.3:CRS84" } } }
